{"type":"FeatureCollection","features":[{"type": "Feature", "geometry": {"type": "Point", "coordinates": [92.7065445, 23.7272686]}, "properties": {"direction": "249", "highway": "street_lamp", "lamp_mount": "angled_mast", "lamp_type": "solar_lamp", "support": "pole"}, "geohash": "wh1yvx6v7"},{"type": "Feature", "geometry": {"type": "Point", "coordinates": [92.7124458, 23.7187179]}, "properties": {"direction": "20", "highway": "street_lamp", "lamp_mount": "angled_mast", "lamp_type": "street_lamp", "support": "pillar"}, "geohash": "wh1yvtz5s"},{"type": "Feature", "geometry": {"type": "Point", "coordinates": [92.712344, 23.718715]}, "properties": {"direction": "258", "highway": "street_lamp", "lamp_mount": "angled_mast", "lamp_type": "street_lamp", "support": "power_pole"}, "geohash": "wh1yvtz5d"},{"type": "Feature", "geometry": {"type": "Point", "coordinates": [92.7121927, 23.7186516]}, "properties": {"direction": "337", "highway": "street_lamp", "lamp_mount": "bent_mast", "lamp_type": "street_lamp", "support": "building"}, "geohash": "wh1yvtygn"},{"type": "Feature", "geometry": {"type": "Point", "coordinates": [92.7120409, 23.7186154]}, "properties": {"direction": "271", "highway": "street_lamp", "lamp_mount": "bent_mast", "lamp_type": "street_lamp", "support": "pole"}, "geohash": "wh1yvtyfg"},{"type": "Feature", "geometry": {"type": "Point", "coordinates": [92.7126156, 23.7187043]}, "properties": {"direction": "335", "highway": "street_lamp", "lamp_mount": "angled_mast", "lamp_type": "street_lamp", "support": "wall_mounted"}, "geohash": "wh1yvtz72"},{"type": "Feature", "geometry": {"type": "Point", "coordinates": [92.7138983, 23.7189985]}, "properties": {"direction": "10", "highway": "street_lamp", "lamp_mount": "bent_mast", "lamp_type": "street_lamp", "support": "wall"}, "geohash": "wh1yvvbjn"},{"type": "Feature", "geometry": {"type": "Point", "coordinates": [92.7141712, 23.7188911]}, "properties": {"direction": "19", "highway": "street_lamp", "lamp_mount": "angled_mast", "lamp_type": "street_lamp", "support": "pole"}, "geohash": "wh1yvvbks"},{"type": "Feature", "geometry": {"type": "Point", "coordinates": [92.7134526, 23.7188297]}, "properties": {"direction": "173", "highway": "street_lamp", "lamp_mount": "bent_mast", "lamp_type": "street_lamp", "support": "pole"}, "geohash": "wh1yvtzuh"},{"type": "Feature", "geometry": {"type": "Point", "coordinates": [92.7130683, 23.7189716]}, "properties": {"direction": "191", "highway": "street_lamp", "lamp_mount": "angled_mast", "lamp_type": "street_lamp", "support": "pole"}, "geohash": "wh1yvtzt5"},{"type": "Feature", "geometry": {"type": "Point", "coordinates": [92.7129115, 23.7189334]}, "properties": {"direction": "152", "highway": "street_lamp", "lamp_mount": "angled_mast", "lamp_type": "street_lamp", "support": "pole"}, "geohash": "wh1yvtzkz"},{"type": "Feature", "geometry": {"type": "Point", "coordinates": [92.71278, 23.718932]}, "properties": {"direction": "140", "highway": "street_lamp", "lamp_mount": "bent_mast", "lamp_type": "street_lamp", "support": "pole"}, "geohash": "wh1yvtzku"},{"type": "Feature", "geometry": {"type": "Point", "coordinates": [92.7129067, 23.7190285]}, "properties": {"direction": "171", "highway": "street_lamp", "lamp_mount": "bent_mast", "lamp_type": "street_lamp", "support": "pole"}, "geohash": "wh1yvtzmr"}]}