{
  "type": "FeatureCollection",
  "features": [
    {
      "type": "Feature",
      "geometry": { "type": "Point", "coordinates": [91.9154875, 25.2022376] },
      "properties": { "highway": "street_lamp" },
      "geohash": "wh3r7efvd"
    },
    {
      "type": "Feature",
      "geometry": { "type": "Point", "coordinates": [91.9155592, 25.2022576] },
      "properties": { "highway": "street_lamp" },
      "geohash": "wh3r7efvg"
    },
    {
      "type": "Feature",
      "geometry": { "type": "Point", "coordinates": [91.9160588, 25.2016679] },
      "properties": { "highway": "street_lamp" },
      "geohash": "wh3r7eg4r"
    },
    {
      "type": "Feature",
      "geometry": { "type": "Point", "coordinates": [91.9161064, 25.2010424] },
      "properties": { "highway": "street_lamp" },
      "geohash": "wh3r7eeq8"
    },
    {
      "type": "Feature",
      "geometry": { "type": "Point", "coordinates": [93.1784955, 25.7493051] },
      "properties": {
        "direction": "360",
        "highway": "street_lamp",
        "lamp_type": "electric"
      },
      "geohash": "whd62rd88"
    },
    {
      "type": "Feature",
      "geometry": { "type": "Point", "coordinates": [91.7529262, 26.1934718] },
      "properties": { "highway": "street_lamp", "name": "52" },
      "geohash": "wh9jpbkkn"
    },
    {
      "type": "Feature",
      "geometry": { "type": "Point", "coordinates": [91.7519958, 26.1928931] },
      "properties": {
        "highway": "street_lamp",
        "lamp_type": "SOLAR, NOT WORKING"
      },
      "geohash": "wh9jpb7b8"
    },
    {
      "type": "Feature",
      "geometry": { "type": "Point", "coordinates": [91.7552682, 26.1948735] },
      "properties": { "highway": "street_lamp", "name": "41" },
      "geohash": "wh9jpbwhh"
    },
    {
      "type": "Feature",
      "geometry": { "type": "Point", "coordinates": [91.7523106, 26.1915702] },
      "properties": { "highway": "street_lamp" },
      "geohash": "wh9jpb5bz"
    },
    {
      "type": "Feature",
      "geometry": { "type": "Point", "coordinates": [91.7537503, 26.1939503] },
      "properties": { "highway": "street_lamp", "name": "48" },
      "geohash": "wh9jpbmnc"
    },
    {
      "type": "Feature",
      "geometry": { "type": "Point", "coordinates": [91.7525397, 26.1932189] },
      "properties": {
        "highway": "street_lamp",
        "lamp_type": "SOLAR, NOT WORKING"
      },
      "geohash": "wh9jpbk4t"
    },
    {
      "type": "Feature",
      "geometry": { "type": "Point", "coordinates": [91.7519917, 26.1925681] },
      "properties": { "highway": "street_lamp" },
      "geohash": "wh9jpb5yb"
    },
    {
      "type": "Feature",
      "geometry": { "type": "Point", "coordinates": [91.7545989, 26.1945058] },
      "properties": { "highway": "street_lamp", "name": "44" },
      "geohash": "wh9jpbtdj"
    },
    {
      "type": "Feature",
      "geometry": { "type": "Point", "coordinates": [91.7531883, 26.1936275] },
      "properties": { "highway": "street_lamp", "lamp_type": "SOLAR WORKING" },
      "geohash": "wh9jpbksu"
    },
    {
      "type": "Feature",
      "geometry": { "type": "Point", "coordinates": [91.752166, 26.1930453] },
      "properties": {
        "highway": "street_lamp",
        "lamp_type": "SOLAR, NOT WORKING"
      },
      "geohash": "wh9jpb7cs"
    },
    {
      "type": "Feature",
      "geometry": { "type": "Point", "coordinates": [91.7521804, 26.1919223] },
      "properties": { "highway": "street_lamp" },
      "geohash": "wh9jpb5gh"
    },
    {
      "type": "Feature",
      "geometry": { "type": "Point", "coordinates": [91.7540731, 26.1941691] },
      "properties": {
        "highway": "street_lamp",
        "lamp_type": "SOLAR, NOT WORKING"
      },
      "geohash": "wh9jpbt20"
    },
    {
      "type": "Feature",
      "geometry": { "type": "Point", "coordinates": [91.7528152, 26.1934141] },
      "properties": {
        "highway": "street_lamp",
        "lamp_type": "SOLAR, NOT WORKING"
      },
      "geohash": "wh9jpbk7e"
    },
    {
      "type": "Feature",
      "geometry": { "type": "Point", "coordinates": [91.7519708, 26.1928531] },
      "properties": { "highway": "street_lamp" },
      "geohash": "wh9jpb78r"
    },
    {
      "type": "Feature",
      "geometry": { "type": "Point", "coordinates": [91.7549429, 26.1947167] },
      "properties": { "highway": "street_lamp", "name": "42" },
      "geohash": "wh9jpbtgm"
    },
    {
      "type": "Feature",
      "geometry": { "type": "Point", "coordinates": [91.7534527, 26.1937648] },
      "properties": {
        "highway": "street_lamp",
        "lamp_type": "SOLAR, NOT WORKING"
      },
      "geohash": "wh9jpbkvd"
    },
    {
      "type": "Feature",
      "geometry": { "type": "Point", "coordinates": [91.752582, 26.1932509] },
      "properties": { "highway": "street_lamp" },
      "geohash": "wh9jpbk4w"
    },
    {
      "type": "Feature",
      "geometry": { "type": "Point", "coordinates": [91.752063, 26.1923126] },
      "properties": { "highway": "street_lamp" },
      "geohash": "wh9jpb5v6"
    },
    {
      "type": "Feature",
      "geometry": { "type": "Point", "coordinates": [91.7544029, 26.1943652] },
      "properties": { "highway": "street_lamp", "name": "45" },
      "geohash": "wh9jpbt90"
    },
    {
      "type": "Feature",
      "geometry": { "type": "Point", "coordinates": [91.7707018, 26.1982154] },
      "properties": { "highway": "street_lamp" },
      "geohash": "wh9m031rs"
    },
    {
      "type": "Feature",
      "geometry": { "type": "Point", "coordinates": [91.75314, 26.1936133] },
      "properties": { "highway": "street_lamp" },
      "geohash": "wh9jpbksg"
    },
    {
      "type": "Feature",
      "geometry": { "type": "Point", "coordinates": [91.752138, 26.1930361] },
      "properties": { "highway": "street_lamp" },
      "geohash": "wh9jpb7c7"
    },
    {
      "type": "Feature",
      "geometry": { "type": "Point", "coordinates": [91.7522408, 26.1917455] },
      "properties": { "highway": "street_lamp" },
      "geohash": "wh9jpb5cy"
    },
    {
      "type": "Feature",
      "geometry": { "type": "Point", "coordinates": [91.7539513, 26.1940927] },
      "properties": { "highway": "street_lamp" },
      "geohash": "wh9jpbmpw"
    },
    {
      "type": "Feature",
      "geometry": { "type": "Point", "coordinates": [91.7527078, 26.1933783] },
      "properties": { "highway": "street_lamp", "name": "Flickering Light 53" },
      "geohash": "wh9jpbk73"
    },
    {
      "type": "Feature",
      "geometry": { "type": "Point", "coordinates": [91.7519057, 26.1927298] },
      "properties": { "highway": "street_lamp" },
      "geohash": "wh9jpb5xw"
    },
    {
      "type": "Feature",
      "geometry": { "type": "Point", "coordinates": [91.7547982, 26.1946191] },
      "properties": { "highway": "street_lamp", "name": "43" },
      "geohash": "wh9jpbtf9"
    },
    {
      "type": "Feature",
      "geometry": { "type": "Point", "coordinates": [91.7533442, 26.1937141] },
      "properties": { "highway": "street_lamp", "name": "50" },
      "geohash": "wh9jpbktr"
    },
    {
      "type": "Feature",
      "geometry": { "type": "Point", "coordinates": [91.7523342, 26.193109] },
      "properties": { "highway": "street_lamp", "name": "55" },
      "geohash": "wh9jpbk1b"
    },
    {
      "type": "Feature",
      "geometry": { "type": "Point", "coordinates": [91.7521265, 26.192103] },
      "properties": { "highway": "street_lamp" },
      "geohash": "wh9jpb5u5"
    },
    {
      "type": "Feature",
      "geometry": { "type": "Point", "coordinates": [91.7541766, 26.1942169] },
      "properties": { "highway": "street_lamp", "name": "46" },
      "geohash": "wh9jpbt27"
    }
  ]
}
