{"type":"FeatureCollection","features":[{"type": "Feature", "geometry": {"type": "Point", "coordinates": [82.1513456, 22.0813145]}, "properties": {"highway": "street_lamp"}, "geohash": "tgfmt7ubc"},{"type": "Feature", "geometry": {"type": "Point", "coordinates": [82.1589227, 22.085566]}, "properties": {"highway": "street_lamp", "lamp_type": "electric"}, "geohash": "tgfmtsd39"},{"type": "Feature", "geometry": {"type": "Point", "coordinates": [84.2465557, 18.813156]}, "properties": {"direction": "90", "highway": "street_lamp", "lamp_type": "electric"}, "geohash": "tg7gj0f6x"},{"type": "Feature", "geometry": {"type": "Point", "coordinates": [84.2449075, 18.8116129]}, "properties": {"direction": "90", "highway": "street_lamp", "lamp_type": "electric"}, "geohash": "tg7gj0938"},{"type": "Feature", "geometry": {"type": "Point", "coordinates": [83.9578716, 18.5553517]}, "properties": {"highway": "street_lamp"}, "geohash": "tg79w9bkb"},{"type": "Feature", "geometry": {"type": "Point", "coordinates": [83.9574666, 18.5553708]}, "properties": {"highway": "street_lamp"}, "geohash": "tg79w3zuy"},{"type": "Feature", "geometry": {"type": "Point", "coordinates": [83.9568597, 18.5553466]}, "properties": {"highway": "street_lamp"}, "geohash": "tg79w3zs8"},{"type": "Feature", "geometry": {"type": "Point", "coordinates": [81.6652729, 18.3884247]}, "properties": {"highway": "street_lamp", "lamp_mount": "high_mast", "lamp_type": "solar_lamp"}, "geohash": "tg60d7db6"},{"type": "Feature", "geometry": {"type": "Point", "coordinates": [81.6656691, 18.3882091]}, "properties": {"highway": "street_lamp", "lamp_mount": "high_mast", "lamp_type": "solar_lamp"}, "geohash": "tg60d77ph"},{"type": "Feature", "geometry": {"type": "Point", "coordinates": [81.66574, 18.3875436]}, "properties": {"highway": "street_lamp", "lamp_mount": "high_mast", "lamp_type": "solar_lamp"}, "geohash": "tg60d775j"},{"type": "Feature", "geometry": {"type": "Point", "coordinates": [81.6655207, 18.3893405]}, "properties": {"highway": "street_lamp", "lamp_mount": "high_mast", "lamp_type": "solar_lamp"}, "geohash": "tg60d7ej8"},{"type": "Feature", "geometry": {"type": "Point", "coordinates": [81.6656244, 18.3886224]}, "properties": {"highway": "street_lamp", "lamp_mount": "high_mast", "lamp_type": "solar_lamp"}, "geohash": "tg60d7e16"},{"type": "Feature", "geometry": {"type": "Point", "coordinates": [81.6653707, 18.3890582]}, "properties": {"highway": "street_lamp", "lamp_mount": "high_mast", "lamp_type": "solar_lamp"}, "geohash": "tg60d7duj"},{"type": "Feature", "geometry": {"type": "Point", "coordinates": [81.6651136, 18.3886552]}, "properties": {"highway": "street_lamp", "lamp_mount": "high_mast", "lamp_type": "solar_lamp"}, "geohash": "tg60d7d9x"},{"type": "Feature", "geometry": {"type": "Point", "coordinates": [81.665776, 18.3884111]}, "properties": {"highway": "street_lamp", "lamp_mount": "high_mast", "lamp_type": "solar_lamp"}, "geohash": "tg60d7e0q"},{"type": "Feature", "geometry": {"type": "Point", "coordinates": [81.6659904, 18.3891071]}, "properties": {"highway": "street_lamp", "lamp_mount": "high_mast", "lamp_type": "solar_lamp"}, "geohash": "tg60d7ek7"},{"type": "Feature", "geometry": {"type": "Point", "coordinates": [81.6657144, 18.3878007]}, "properties": {"highway": "street_lamp", "lamp_mount": "high_mast", "lamp_type": "solar_lamp"}, "geohash": "tg60d77ht"},{"type": "Feature", "geometry": {"type": "Point", "coordinates": [81.6661846, 18.3889124]}, "properties": {"highway": "street_lamp", "lamp_mount": "high_mast", "lamp_type": "solar_lamp"}, "geohash": "tg60d7ee0"},{"type": "Feature", "geometry": {"type": "Point", "coordinates": [81.6652685, 18.3892104]}, "properties": {"highway": "street_lamp", "lamp_mount": "high_mast", "lamp_type": "solar_lamp"}, "geohash": "tg60d7duf"},{"type": "Feature", "geometry": {"type": "Point", "coordinates": [81.6657269, 18.387665]}, "properties": {"highway": "street_lamp", "lamp_mount": "high_mast", "lamp_type": "solar_lamp"}, "geohash": "tg60d775v"},{"type": "Feature", "geometry": {"type": "Point", "coordinates": [81.6659926, 18.3884174]}, "properties": {"highway": "street_lamp", "lamp_mount": "high_mast", "lamp_type": "solar_lamp"}, "geohash": "tg60d7e27"},{"type": "Feature", "geometry": {"type": "Point", "coordinates": [81.6657252, 18.3893373]}, "properties": {"highway": "street_lamp", "lamp_mount": "high_mast", "lamp_type": "solar_lamp"}, "geohash": "tg60d7ejt"},{"type": "Feature", "geometry": {"type": "Point", "coordinates": [81.6651574, 18.3890926]}, "properties": {"highway": "street_lamp", "lamp_mount": "high_mast", "lamp_type": "solar_lamp"}, "geohash": "tg60d7du0"},{"type": "Feature", "geometry": {"type": "Point", "coordinates": [81.6650819, 18.3888182]}, "properties": {"highway": "street_lamp", "lamp_mount": "high_mast", "lamp_type": "solar_lamp"}, "geohash": "tg60d7ddw"},{"type": "Feature", "geometry": {"type": "Point", "coordinates": [81.6653542, 18.3887864]}, "properties": {"colour": "gray", "highway": "street_lamp", "lamp_mount": "high_mast", "lamp_type": "solar_lamp", "source:highway": "survey"}, "geohash": "tg60d7dfk"},{"type": "Feature", "geometry": {"type": "Point", "coordinates": [81.6661256, 18.3890771]}, "properties": {"highway": "street_lamp", "lamp_mount": "high_mast", "lamp_type": "solar_lamp"}, "geohash": "tg60d7ekn"},{"type": "Feature", "geometry": {"type": "Point", "coordinates": [81.6658339, 18.3891968]}, "properties": {"highway": "street_lamp", "lamp_mount": "high_mast", "lamp_type": "solar_lamp"}, "geohash": "tg60d7ehz"},{"type": "Feature", "geometry": {"type": "Point", "coordinates": [81.6659403, 18.3887381]}, "properties": {"highway": "street_lamp", "lamp_mount": "high_mast", "lamp_type": "solar_lamp"}, "geohash": "tg60d7e64"},{"type": "Feature", "geometry": {"type": "Point", "coordinates": [81.6660907, 18.3887687]}, "properties": {"highway": "street_lamp", "lamp_mount": "high_mast", "lamp_type": "solar_lamp"}, "geohash": "tg60d7e6m"},{"type": "Feature", "geometry": {"type": "Point", "coordinates": [81.6659383, 18.3892646]}, "properties": {"highway": "street_lamp", "lamp_mount": "high_mast", "lamp_type": "solar_lamp"}, "geohash": "tg60d7em4"},{"type": "Feature", "geometry": {"type": "Point", "coordinates": [81.6661758, 18.3886896]}, "properties": {"highway": "street_lamp", "lamp_mount": "high_mast", "lamp_type": "solar_lamp"}, "geohash": "tg60d7e3z"},{"type": "Feature", "geometry": {"type": "Point", "coordinates": [81.6658238, 18.387546]}, "properties": {"highway": "street_lamp", "lamp_mount": "high_mast", "lamp_type": "solar_lamp"}, "geohash": "tg60d775p"},{"type": "Feature", "geometry": {"type": "Point", "coordinates": [81.665819, 18.3876704]}, "properties": {"highway": "street_lamp", "lamp_mount": "high_mast", "lamp_type": "solar_lamp"}, "geohash": "tg60d775z"},{"type": "Feature", "geometry": {"type": "Point", "coordinates": [81.6657606, 18.3882146]}, "properties": {"highway": "street_lamp", "lamp_mount": "high_mast", "lamp_type": "solar_lamp"}, "geohash": "tg60d77pn"},{"type": "Feature", "geometry": {"type": "Point", "coordinates": [81.6656854, 18.3881]}, "properties": {"highway": "street_lamp", "lamp_mount": "high_mast", "lamp_type": "solar_lamp"}, "geohash": "tg60d77nk"},{"type": "Feature", "geometry": {"type": "Point", "coordinates": [81.665698, 18.387965]}, "properties": {"highway": "street_lamp", "lamp_mount": "high_mast", "lamp_type": "solar_lamp"}, "geohash": "tg60d77js"},{"type": "Feature", "geometry": {"type": "Point", "coordinates": [81.6657776, 18.3881075]}, "properties": {"highway": "street_lamp", "lamp_mount": "high_mast", "lamp_type": "solar_lamp"}, "geohash": "tg60d77nq"},{"type": "Feature", "geometry": {"type": "Point", "coordinates": [81.6658065, 18.3878018]}, "properties": {"highway": "street_lamp", "lamp_mount": "high_mast", "lamp_type": "solar_lamp"}, "geohash": "tg60d77hx"},{"type": "Feature", "geometry": {"type": "Point", "coordinates": [81.6657909, 18.3879777]}, "properties": {"highway": "street_lamp", "lamp_mount": "high_mast", "lamp_type": "solar_lamp"}, "geohash": "tg60d77jw"},{"type": "Feature", "geometry": {"type": "Point", "coordinates": [81.3434216, 18.929645]}, "properties": {"highway": "street_lamp", "lamp_mount": "high_mast", "lamp_type": "electric", "opening_hours": "Mo-Su 00:00-24:00"}, "geohash": "tg3gen03p"},{"type": "Feature", "geometry": {"type": "Point", "coordinates": [81.3436415, 18.9284491]}, "properties": {"highway": "street_lamp", "lamp_mount": "high_mast", "lamp_type": "electric", "opening_hours": "Mo-Su 00:00-24:00"}, "geohash": "tg3gejbdh"},{"type": "Feature", "geometry": {"type": "Point", "coordinates": [81.3435164, 18.9291085]}, "properties": {"highway": "street_lamp", "lamp_mount": "high_mast", "lamp_type": "electric", "opening_hours": "Mo-Su 00:00-24:00"}, "geohash": "tg3gejbw1"},{"type": "Feature", "geometry": {"type": "Point", "coordinates": [81.3435867, 18.9287441]}, "properties": {"highway": "street_lamp", "lamp_mount": "high_mast", "lamp_type": "electric", "opening_hours": "Mo-Su 00:00-24:00"}, "geohash": "tg3gejbef"},{"type": "Feature", "geometry": {"type": "Point", "coordinates": [81.3436265, 18.9285368]}, "properties": {"highway": "street_lamp", "lamp_mount": "high_mast", "lamp_type": "electric", "opening_hours": "Mo-Su 00:00-24:00"}, "geohash": "tg3gejbde"},{"type": "Feature", "geometry": {"type": "Point", "coordinates": [81.343497, 18.929215]}, "properties": {"highway": "street_lamp", "lamp_mount": "high_mast", "lamp_type": "electric", "opening_hours": "Mo-Su 00:00-24:00"}, "geohash": "tg3gejbw8"},{"type": "Feature", "geometry": {"type": "Point", "coordinates": [81.3435665, 18.9288552]}, "properties": {"highway": "street_lamp", "lamp_mount": "high_mast", "lamp_type": "electric", "opening_hours": "Mo-Su 00:00-24:00"}, "geohash": "tg3gejbsd"},{"type": "Feature", "geometry": {"type": "Point", "coordinates": [81.3434474, 18.9294836]}, "properties": {"highway": "street_lamp", "lamp_mount": "high_mast", "lamp_type": "electric", "opening_hours": "Mo-Su 00:00-24:00"}, "geohash": "tg3gen02p"},{"type": "Feature", "geometry": {"type": "Point", "coordinates": [81.3436037, 18.9286448]}, "properties": {"highway": "street_lamp", "lamp_mount": "high_mast", "lamp_type": "electric", "opening_hours": "Mo-Su 00:00-24:00"}, "geohash": "tg3gejbe7"},{"type": "Feature", "geometry": {"type": "Point", "coordinates": [81.3433956, 18.9298006]}, "properties": {"highway": "street_lamp", "lamp_mount": "high_mast", "lamp_type": "electric", "opening_hours": "Mo-Su 00:00-24:00"}, "geohash": "tg3gen06n"},{"type": "Feature", "geometry": {"type": "Point", "coordinates": [81.3434748, 18.9293496]}, "properties": {"highway": "street_lamp", "lamp_mount": "high_mast", "lamp_type": "electric", "opening_hours": "Mo-Su 00:00-24:00"}, "geohash": "tg3gejbx2"},{"type": "Feature", "geometry": {"type": "Point", "coordinates": [81.3435434, 18.9289673]}, "properties": {"highway": "street_lamp", "lamp_mount": "high_mast", "lamp_type": "electric", "opening_hours": "Mo-Su 00:00-24:00"}, "geohash": "tg3gejbt1"},{"type": "Feature", "geometry": {"type": "Point", "coordinates": [81.6588585, 18.3920914]}, "properties": {"highway": "street_lamp", "lamp_mount": "bent_mast", "lamp_type": "led", "opening_hours": "24/7", "ref": "Municipality"}, "geohash": "tg60dhnjt"},{"type": "Feature", "geometry": {"type": "Point", "coordinates": [81.6603094, 18.4002548]}, "properties": {"highway": "street_lamp", "lamp_mount": "bent_mast", "lamp_type": "led", "opening_hours": "24/7", "ref": "Municipality"}, "geohash": "tg60djxjr"},{"type": "Feature", "geometry": {"type": "Point", "coordinates": [81.6604217, 18.4005427]}, "properties": {"highway": "street_lamp", "lamp_mount": "bent_mast", "lamp_type": "led", "opening_hours": "24/7", "ref": "Municipality"}, "geohash": "tg60djxqc"},{"type": "Feature", "geometry": {"type": "Point", "coordinates": [81.6619699, 18.4020587]}, "properties": {"highway": "street_lamp", "lamp_mount": "bent_mast", "lamp_type": "led", "opening_hours": "24/7", "ref": "Municipality"}, "geohash": "tg60dmbrv"},{"type": "Feature", "geometry": {"type": "Point", "coordinates": [81.6586569, 18.3941076]}, "properties": {"highway": "street_lamp", "lamp_mount": "bent_mast", "lamp_type": "led", "opening_hours": "24/7", "ref": "Municipality"}, "geohash": "tg60dhw12"},{"type": "Feature", "geometry": {"type": "Point", "coordinates": [81.6607939, 18.401134]}, "properties": {"highway": "street_lamp", "lamp_mount": "bent_mast", "lamp_type": "led", "opening_hours": "24/7", "ref": "Municipality"}, "geohash": "tg60djzd6"},{"type": "Feature", "geometry": {"type": "Point", "coordinates": [81.6585874, 18.3951059]}, "properties": {"highway": "street_lamp", "lamp_mount": "bent_mast", "lamp_type": "led", "opening_hours": "24/7", "ref": "Municipality"}, "geohash": "tg60dhtzq"},{"type": "Feature", "geometry": {"type": "Point", "coordinates": [81.6592698, 18.3891017]}, "properties": {"highway": "street_lamp", "lamp_mount": "bent_mast", "lamp_type": "led", "opening_hours": "24/7", "ref": "Municipality"}, "geohash": "tg60d5wkq"},{"type": "Feature", "geometry": {"type": "Point", "coordinates": [81.6565543, 18.3879347]}, "properties": {"highway": "street_lamp", "lamp_mount": "bent_mast", "lamp_type": "led", "opening_hours": "24/7", "ref": "Municipality"}, "geohash": "tg60d5kmr"},{"type": "Feature", "geometry": {"type": "Point", "coordinates": [81.6624781, 18.4034432]}, "properties": {"highway": "street_lamp", "lamp_mount": "bent_mast", "lamp_type": "led", "opening_hours": "24/7", "ref": "Municipality"}, "geohash": "tg60dq0zc"},{"type": "Feature", "geometry": {"type": "Point", "coordinates": [81.6562902, 18.3878363]}, "properties": {"highway": "street_lamp", "lamp_mount": "bent_mast", "lamp_type": "led", "opening_hours": "24/7", "ref": "Municipality"}, "geohash": "tg60d5kkc"},{"type": "Feature", "geometry": {"type": "Point", "coordinates": [81.6591615, 18.3970942]}, "properties": {"highway": "street_lamp", "lamp_mount": "bent_mast", "lamp_type": "led", "opening_hours": "24/7", "ref": "Municipality"}, "geohash": "tg60djn6u"},{"type": "Feature", "geometry": {"type": "Point", "coordinates": [81.6630542, 18.405483]}, "properties": {"highway": "street_lamp", "lamp_mount": "bent_mast", "lamp_type": "led", "opening_hours": "24/7", "ref": "Municipality"}, "geohash": "tg60dq95x"},{"type": "Feature", "geometry": {"type": "Point", "coordinates": [81.6586088, 18.3948332]}, "properties": {"highway": "street_lamp", "lamp_mount": "bent_mast", "lamp_type": "led", "opening_hours": "24/7", "ref": "Municipality"}, "geohash": "tg60dhtvx"},{"type": "Feature", "geometry": {"type": "Point", "coordinates": [81.659242, 18.3893778]}, "properties": {"highway": "street_lamp", "lamp_mount": "bent_mast", "lamp_type": "led", "opening_hours": "24/7", "ref": "Municipality"}, "geohash": "tg60d5wmy"},{"type": "Feature", "geometry": {"type": "Point", "coordinates": [81.6617456, 18.4018621]}, "properties": {"highway": "street_lamp", "lamp_mount": "bent_mast", "lamp_type": "led", "opening_hours": "24/7", "ref": "Municipality"}, "geohash": "tg60dmbq8"},{"type": "Feature", "geometry": {"type": "Point", "coordinates": [81.662957, 18.4051965]}, "properties": {"highway": "street_lamp", "lamp_mount": "bent_mast", "lamp_type": "led", "opening_hours": "24/7", "ref": "Municipality"}, "geohash": "tg60dq94h"},{"type": "Feature", "geometry": {"type": "Point", "coordinates": [81.6590338, 18.3909659]}, "properties": {"highway": "street_lamp", "lamp_mount": "bent_mast", "lamp_type": "led", "opening_hours": "24/7", "ref": "Municipality"}, "geohash": "tg60d5yr1"},{"type": "Feature", "geometry": {"type": "Point", "coordinates": [81.6590395, 18.3888543]}, "properties": {"highway": "street_lamp", "lamp_mount": "bent_mast", "lamp_type": "led", "opening_hours": "24/7", "ref": "Municipality"}, "geohash": "tg60d5w6c"},{"type": "Feature", "geometry": {"type": "Point", "coordinates": [81.6588266, 18.3923367]}, "properties": {"highway": "street_lamp", "lamp_mount": "bent_mast", "lamp_type": "led", "opening_hours": "24/7", "ref": "Municipality"}, "geohash": "tg60dhnph"},{"type": "Feature", "geometry": {"type": "Point", "coordinates": [81.6628876, 18.4049069]}, "properties": {"highway": "street_lamp", "lamp_mount": "bent_mast", "lamp_type": "led", "opening_hours": "24/7", "ref": "Municipality"}, "geohash": "tg60dq907"},{"type": "Feature", "geometry": {"type": "Point", "coordinates": [81.6636399, 18.406493]}, "properties": {"highway": "street_lamp", "lamp_mount": "bent_mast", "lamp_type": "led", "opening_hours": "24/7", "ref": "Municipality"}, "geohash": "tg60dqc9s"},{"type": "Feature", "geometry": {"type": "Point", "coordinates": [81.6586853, 18.3937252]}, "properties": {"highway": "street_lamp", "lamp_mount": "bent_mast", "lamp_type": "led", "opening_hours": "24/7", "ref": "Municipality"}, "geohash": "tg60dhqp1"},{"type": "Feature", "geometry": {"type": "Point", "coordinates": [81.6587602, 18.3961126]}, "properties": {"highway": "street_lamp", "lamp_mount": "bent_mast", "lamp_type": "led", "opening_hours": "24/7", "ref": "Municipality"}, "geohash": "tg60dhyj5"},{"type": "Feature", "geometry": {"type": "Point", "coordinates": [81.6621418, 18.4023307]}, "properties": {"highway": "street_lamp", "lamp_mount": "bent_mast", "lamp_type": "led", "opening_hours": "24/7", "ref": "Municipality"}, "geohash": "tg60dq093"},{"type": "Feature", "geometry": {"type": "Point", "coordinates": [81.6586076, 18.394723]}, "properties": {"highway": "street_lamp", "lamp_mount": "bent_mast", "lamp_type": "led", "opening_hours": "24/7", "ref": "Municipality"}, "geohash": "tg60dhtvp"},{"type": "Feature", "geometry": {"type": "Point", "coordinates": [81.6594153, 18.3977664]}, "properties": {"highway": "street_lamp", "lamp_mount": "bent_mast", "lamp_type": "led", "opening_hours": "24/7", "ref": "Municipality"}, "geohash": "tg60djnwf"},{"type": "Feature", "geometry": {"type": "Point", "coordinates": [81.6630134, 18.4053898]}, "properties": {"highway": "street_lamp", "lamp_mount": "bent_mast", "lamp_type": "led", "opening_hours": "24/7", "ref": "Municipality"}, "geohash": "tg60dq95n"},{"type": "Feature", "geometry": {"type": "Point", "coordinates": [81.6593304, 18.3975417]}, "properties": {"highway": "street_lamp", "lamp_mount": "bent_mast", "lamp_type": "led", "opening_hours": "24/7", "ref": "Municipality"}, "geohash": "tg60djnt2"},{"type": "Feature", "geometry": {"type": "Point", "coordinates": [81.6586014, 18.3954303]}, "properties": {"highway": "street_lamp", "lamp_mount": "bent_mast", "lamp_type": "led", "opening_hours": "24/7", "ref": "Municipality"}, "geohash": "tg60dhvcp"},{"type": "Feature", "geometry": {"type": "Point", "coordinates": [81.6599324, 18.3992242]}, "properties": {"highway": "street_lamp", "lamp_mount": "bent_mast", "lamp_type": "led", "opening_hours": "24/7", "ref": "Municipality"}, "geohash": "tg60djqzn"},{"type": "Feature", "geometry": {"type": "Point", "coordinates": [81.6595887, 18.3982816]}, "properties": {"highway": "street_lamp", "lamp_mount": "bent_mast", "lamp_type": "led", "opening_hours": "24/7", "ref": "Municipality"}, "geohash": "tg60djq9y"},{"type": "Feature", "geometry": {"type": "Point", "coordinates": [81.6586336, 18.3942113]}, "properties": {"highway": "street_lamp", "lamp_mount": "bent_mast", "lamp_type": "led", "opening_hours": "24/7", "ref": "Municipality"}, "geohash": "tg60dhw40"},{"type": "Feature", "geometry": {"type": "Point", "coordinates": [81.660722, 18.4010651]}, "properties": {"highway": "street_lamp", "lamp_mount": "bent_mast", "lamp_type": "led", "opening_hours": "24/7", "ref": "Municipality"}, "geohash": "tg60djz9b"},{"type": "Feature", "geometry": {"type": "Point", "coordinates": [81.659116, 18.3888962]}, "properties": {"highway": "street_lamp", "lamp_mount": "bent_mast", "lamp_type": "led", "opening_hours": "24/7", "ref": "Municipality"}, "geohash": "tg60d5w75"},{"type": "Feature", "geometry": {"type": "Point", "coordinates": [81.6623623, 18.4029939]}, "properties": {"highway": "street_lamp", "lamp_mount": "bent_mast", "lamp_type": "led", "opening_hours": "24/7", "ref": "Municipality"}, "geohash": "tg60dq0tn"},{"type": "Feature", "geometry": {"type": "Point", "coordinates": [81.6585944, 18.3953116]}, "properties": {"highway": "street_lamp", "lamp_mount": "bent_mast", "lamp_type": "led", "opening_hours": "24/7", "ref": "Municipality"}, "geohash": "tg60dhvbr"},{"type": "Feature", "geometry": {"type": "Point", "coordinates": [81.662263, 18.4027048]}, "properties": {"highway": "street_lamp", "lamp_mount": "bent_mast", "lamp_type": "led", "opening_hours": "24/7", "ref": "Municipality"}, "geohash": "tg60dq0es"},{"type": "Feature", "geometry": {"type": "Point", "coordinates": [81.6584338, 18.3886146]}, "properties": {"highway": "street_lamp", "lamp_mount": "bent_mast", "lamp_type": "led", "opening_hours": "24/7", "ref": "Municipality"}, "geohash": "tg60d5tc7"},{"type": "Feature", "geometry": {"type": "Point", "coordinates": [81.6585979, 18.3949418]}, "properties": {"highway": "street_lamp", "lamp_mount": "bent_mast", "lamp_type": "led", "opening_hours": "24/7", "ref": "Municipality"}, "geohash": "tg60dhtyr"},{"type": "Feature", "geometry": {"type": "Point", "coordinates": [81.6568917, 18.3880587]}, "properties": {"highway": "street_lamp", "lamp_mount": "bent_mast", "lamp_type": "led", "opening_hours": "24/7", "ref": "Municipality"}, "geohash": "tg60d5kwp"},{"type": "Feature", "geometry": {"type": "Point", "coordinates": [81.6589216, 18.39169]}, "properties": {"highway": "street_lamp", "lamp_mount": "bent_mast", "lamp_type": "led", "opening_hours": "24/7", "ref": "Municipality"}, "geohash": "tg60dhn5q"},{"type": "Feature", "geometry": {"type": "Point", "coordinates": [81.6589454, 18.3888152]}, "properties": {"highway": "street_lamp", "lamp_mount": "bent_mast", "lamp_type": "led", "opening_hours": "24/7", "ref": "Municipality"}, "geohash": "tg60d5w4x"},{"type": "Feature", "geometry": {"type": "Point", "coordinates": [81.6621923, 18.4024234]}, "properties": {"highway": "street_lamp", "lamp_mount": "bent_mast", "lamp_type": "led", "opening_hours": "24/7", "ref": "Municipality"}, "geohash": "tg60dq09f"},{"type": "Feature", "geometry": {"type": "Point", "coordinates": [81.6641402, 18.4068649]}, "properties": {"highway": "street_lamp", "lamp_mount": "bent_mast", "lamp_type": "led", "opening_hours": "24/7", "ref": "Municipality"}, "geohash": "tg60dqf5b"},{"type": "Feature", "geometry": {"type": "Point", "coordinates": [81.6592227, 18.3972843]}, "properties": {"highway": "street_lamp", "lamp_mount": "bent_mast", "lamp_type": "led", "opening_hours": "24/7", "ref": "Municipality"}, "geohash": "tg60djn7v"},{"type": "Feature", "geometry": {"type": "Point", "coordinates": [81.6640711, 18.4068243]}, "properties": {"highway": "street_lamp", "lamp_mount": "bent_mast", "lamp_type": "led", "opening_hours": "24/7", "ref": "Municipality"}, "geohash": "tg60dqcgw"},{"type": "Feature", "geometry": {"type": "Point", "coordinates": [81.6588715, 18.3920056]}, "properties": {"highway": "street_lamp", "lamp_mount": "bent_mast", "lamp_type": "led", "opening_hours": "24/7", "ref": "Municipality"}, "geohash": "tg60dhnjj"},{"type": "Feature", "geometry": {"type": "Point", "coordinates": [81.659501, 18.398055]}, "properties": {"highway": "street_lamp", "lamp_mount": "pole", "lamp_type": "led", "opening_hours": "24/7", "ref": "Municipality", "support": "poles"}, "geohash": "tg60djq8k"},{"type": "Feature", "geometry": {"type": "Point", "coordinates": [81.66021, 18.3999684]}, "properties": {"highway": "street_lamp", "lamp_mount": "bent_mast", "lamp_type": "led", "opening_hours": "24/7", "ref": "Municipality"}, "geohash": "tg60djx5s"},{"type": "Feature", "geometry": {"type": "Point", "coordinates": [81.662215, 18.4025186]}, "properties": {"highway": "street_lamp", "lamp_mount": "bent_mast", "lamp_type": "led", "opening_hours": "24/7", "ref": "Municipality"}, "geohash": "tg60dq0d7"},{"type": "Feature", "geometry": {"type": "Point", "coordinates": [81.6604707, 18.4006387]}, "properties": {"highway": "street_lamp", "lamp_mount": "bent_mast", "lamp_type": "led", "opening_hours": "24/7", "ref": "Municipality"}, "geohash": "tg60djxr6"},{"type": "Feature", "geometry": {"type": "Point", "coordinates": [81.6591184, 18.3902813]}, "properties": {"highway": "street_lamp", "lamp_mount": "bent_mast", "lamp_type": "led", "opening_hours": "24/7", "ref": "Municipality"}, "geohash": "tg60d5y75"},{"type": "Feature", "geometry": {"type": "Point", "coordinates": [81.662838, 18.4047182]}, "properties": {"highway": "street_lamp", "lamp_mount": "bent_mast", "lamp_type": "led", "opening_hours": "24/7", "ref": "Municipality"}, "geohash": "tg60dq3p6"},{"type": "Feature", "geometry": {"type": "Point", "coordinates": [81.662693, 18.4041969]}, "properties": {"highway": "street_lamp", "lamp_mount": "bent_mast", "lamp_type": "led", "opening_hours": "24/7", "ref": "Municipality"}, "geohash": "tg60dq2un"},{"type": "Feature", "geometry": {"type": "Point", "coordinates": [81.6630822, 18.4055652]}, "properties": {"highway": "street_lamp", "lamp_mount": "bent_mast", "lamp_type": "led", "opening_hours": "24/7", "ref": "Municipality"}, "geohash": "tg60dq9hp"},{"type": "Feature", "geometry": {"type": "Point", "coordinates": [81.6590521, 18.3907826]}, "properties": {"highway": "street_lamp", "lamp_mount": "bent_mast", "lamp_type": "led", "opening_hours": "24/7", "ref": "Municipality"}, "geohash": "tg60d5yq1"},{"type": "Feature", "geometry": {"type": "Point", "coordinates": [81.6603935, 18.4004484]}, "properties": {"highway": "street_lamp", "lamp_mount": "bent_mast", "lamp_type": "led", "opening_hours": "24/7", "ref": "Municipality"}, "geohash": "tg60djxq3"},{"type": "Feature", "geometry": {"type": "Point", "coordinates": [81.6597835, 18.3988361]}, "properties": {"highway": "street_lamp", "lamp_mount": "bent_mast", "lamp_type": "led", "opening_hours": "24/7", "ref": "Municipality"}, "geohash": "tg60djquf"},{"type": "Feature", "geometry": {"type": "Point", "coordinates": [81.6632201, 18.4059849]}, "properties": {"highway": "street_lamp", "lamp_mount": "bent_mast", "lamp_type": "led", "opening_hours": "24/7", "ref": "Municipality"}, "geohash": "tg60dq9qd"},{"type": "Feature", "geometry": {"type": "Point", "coordinates": [81.6586396, 18.3943403]}, "properties": {"highway": "street_lamp", "lamp_mount": "bent_mast", "lamp_type": "led", "opening_hours": "24/7", "ref": "Municipality"}, "geohash": "tg60dhw4b"},{"type": "Feature", "geometry": {"type": "Point", "coordinates": [81.6625265, 18.4036404]}, "properties": {"highway": "street_lamp", "lamp_mount": "bent_mast", "lamp_type": "led", "opening_hours": "24/7", "ref": "Municipality"}, "geohash": "tg60dq2bf"},{"type": "Feature", "geometry": {"type": "Point", "coordinates": [81.6567777, 18.3880129]}, "properties": {"highway": "street_lamp", "lamp_mount": "bent_mast", "lamp_type": "led", "opening_hours": "24/7", "ref": "Municipality"}, "geohash": "tg60d5ktu"},{"type": "Feature", "geometry": {"type": "Point", "coordinates": [81.6586299, 18.3944352]}, "properties": {"highway": "street_lamp", "lamp_mount": "bent_mast", "lamp_type": "led", "opening_hours": "24/7", "ref": "Municipality"}, "geohash": "tg60dhtgr"},{"type": "Feature", "geometry": {"type": "Point", "coordinates": [81.6590647, 18.3906935]}, "properties": {"highway": "street_lamp", "lamp_mount": "bent_mast", "lamp_type": "led", "opening_hours": "24/7", "ref": "Municipality"}, "geohash": "tg60d5ymd"},{"type": "Feature", "geometry": {"type": "Point", "coordinates": [81.6569673, 18.388075]}, "properties": {"highway": "street_lamp", "lamp_mount": "bent_mast", "lamp_type": "led", "opening_hours": "24/7", "ref": "Municipality"}, "geohash": "tg60d5ky3"},{"type": "Feature", "geometry": {"type": "Point", "coordinates": [81.6592621, 18.3973721]}, "properties": {"highway": "street_lamp", "lamp_mount": "bent_mast", "lamp_type": "led", "opening_hours": "24/7", "ref": "Municipality"}, "geohash": "tg60djnkq"},{"type": "Feature", "geometry": {"type": "Point", "coordinates": [81.6586746, 18.3938185]}, "properties": {"highway": "street_lamp", "lamp_mount": "bent_mast", "lamp_type": "led", "opening_hours": "24/7", "ref": "Municipality"}, "geohash": "tg60dhqpc"},{"type": "Feature", "geometry": {"type": "Point", "coordinates": [81.6623935, 18.4030927]}, "properties": {"highway": "street_lamp", "lamp_mount": "bent_mast", "lamp_type": "led", "opening_hours": "24/7", "ref": "Municipality"}, "geohash": "tg60dq0tz"},{"type": "Feature", "geometry": {"type": "Point", "coordinates": [81.657852, 18.3884029]}, "properties": {"highway": "street_lamp", "lamp_mount": "bent_mast", "lamp_type": "led", "opening_hours": "24/7", "ref": "Municipality"}, "geohash": "tg60d5t2j"},{"type": "Feature", "geometry": {"type": "Point", "coordinates": [81.6599995, 18.3994211]}, "properties": {"highway": "street_lamp", "lamp_mount": "bent_mast", "lamp_type": "led", "opening_hours": "24/7", "ref": "Municipality"}, "geohash": "tg60djwbr"},{"type": "Feature", "geometry": {"type": "Point", "coordinates": [81.663151, 18.4058249]}, "properties": {"highway": "street_lamp", "lamp_mount": "bent_mast", "lamp_type": "led", "opening_hours": "24/7", "ref": "Municipality"}, "geohash": "tg60dq9m9"},{"type": "Feature", "geometry": {"type": "Point", "coordinates": [81.6601756, 18.3998601]}, "properties": {"highway": "street_lamp", "lamp_mount": "bent_mast", "lamp_type": "led", "opening_hours": "24/7", "ref": "Municipality"}, "geohash": "tg60djx4u"},{"type": "Feature", "geometry": {"type": "Point", "coordinates": [81.6587393, 18.3931655]}, "properties": {"highway": "street_lamp", "lamp_mount": "bent_mast", "lamp_type": "led", "opening_hours": "24/7", "ref": "Municipality"}, "geohash": "tg60dhq5f"},{"type": "Feature", "geometry": {"type": "Point", "coordinates": [81.662934, 18.4050809]}, "properties": {"highway": "street_lamp", "lamp_mount": "bent_mast", "lamp_type": "led", "opening_hours": "24/7", "ref": "Municipality"}, "geohash": "tg60dq91k"},{"type": "Feature", "geometry": {"type": "Point", "coordinates": [81.6618166, 18.4019285]}, "properties": {"highway": "street_lamp", "lamp_mount": "bent_mast", "lamp_type": "led", "opening_hours": "24/7", "ref": "Municipality"}, "geohash": "tg60dmbr4"},{"type": "Feature", "geometry": {"type": "Point", "coordinates": [81.6591564, 18.3900875]}, "properties": {"highway": "street_lamp", "lamp_mount": "bent_mast", "lamp_type": "led", "opening_hours": "24/7", "ref": "Municipality"}, "geohash": "tg60d5y6h"},{"type": "Feature", "geometry": {"type": "Point", "coordinates": [81.6590079, 18.3911378]}, "properties": {"highway": "street_lamp", "lamp_mount": "bent_mast", "lamp_type": "led", "opening_hours": "24/7", "ref": "Municipality"}, "geohash": "tg60dhn20"},{"type": "Feature", "geometry": {"type": "Point", "coordinates": [81.6601331, 18.3997707]}, "properties": {"highway": "street_lamp", "lamp_mount": "bent_mast", "lamp_type": "led", "opening_hours": "24/7", "ref": "Municipality"}, "geohash": "tg60djx47"},{"type": "Feature", "geometry": {"type": "Point", "coordinates": [81.6592488, 18.3892934]}, "properties": {"highway": "street_lamp", "lamp_mount": "bent_mast", "lamp_type": "led", "opening_hours": "24/7", "ref": "Municipality"}, "geohash": "tg60d5wmq"},{"type": "Feature", "geometry": {"type": "Point", "coordinates": [81.6586568, 18.3940396]}, "properties": {"highway": "street_lamp", "lamp_mount": "bent_mast", "lamp_type": "led", "opening_hours": "24/7", "ref": "Municipality"}, "geohash": "tg60dhw10"},{"type": "Feature", "geometry": {"type": "Point", "coordinates": [81.6563728, 18.3878669]}, "properties": {"highway": "street_lamp", "lamp_mount": "bent_mast", "lamp_type": "led", "opening_hours": "24/7", "ref": "Municipality"}, "geohash": "tg60d5km5"},{"type": "Feature", "geometry": {"type": "Point", "coordinates": [81.6630969, 18.4056715]}, "properties": {"highway": "street_lamp", "lamp_mount": "bent_mast", "lamp_type": "led", "opening_hours": "24/7", "ref": "Municipality"}, "geohash": "tg60dq9kb"},{"type": "Feature", "geometry": {"type": "Point", "coordinates": [81.660354, 18.400357]}, "properties": {"highway": "street_lamp", "lamp_mount": "bent_mast", "lamp_type": "led", "opening_hours": "24/7", "ref": "Municipality"}, "geohash": "tg60djxmb"},{"type": "Feature", "geometry": {"type": "Point", "coordinates": [81.6637051, 18.4065598]}, "properties": {"highway": "street_lamp", "lamp_mount": "bent_mast", "lamp_type": "led", "opening_hours": "24/7", "ref": "Municipality"}, "geohash": "tg60dqc9y"},{"type": "Feature", "geometry": {"type": "Point", "coordinates": [81.662284, 18.4027912]}, "properties": {"highway": "street_lamp", "lamp_mount": "bent_mast", "lamp_type": "led", "opening_hours": "24/7", "ref": "Municipality"}, "geohash": "tg60dq0sj"},{"type": "Feature", "geometry": {"type": "Point", "coordinates": [81.6590716, 18.3968793]}, "properties": {"highway": "street_lamp", "lamp_mount": "bent_mast", "lamp_type": "led", "opening_hours": "24/7", "ref": "Municipality"}, "geohash": "tg60djn3d"},{"type": "Feature", "geometry": {"type": "Point", "coordinates": [81.6574925, 18.3882628]}, "properties": {"highway": "street_lamp", "lamp_mount": "bent_mast", "lamp_type": "led", "opening_hours": "24/7", "ref": "Municipality"}, "geohash": "tg60d5mpm"},{"type": "Feature", "geometry": {"type": "Point", "coordinates": [81.6561261, 18.3877767]}, "properties": {"highway": "street_lamp", "lamp_mount": "bent_mast", "lamp_type": "led", "opening_hours": "24/7", "ref": "Municipality"}, "geohash": "tg60d5kht"},{"type": "Feature", "geometry": {"type": "Point", "coordinates": [81.6586169, 18.3946111]}, "properties": {"highway": "street_lamp", "lamp_mount": "bent_mast", "lamp_type": "led", "opening_hours": "24/7", "ref": "Municipality"}, "geohash": "tg60dhtur"},{"type": "Feature", "geometry": {"type": "Point", "coordinates": [81.6588249, 18.3922663]}, "properties": {"highway": "street_lamp", "lamp_mount": "bent_mast", "lamp_type": "led", "opening_hours": "24/7", "ref": "Municipality"}, "geohash": "tg60dhnns"},{"type": "Feature", "geometry": {"type": "Point", "coordinates": [81.6597102, 18.3986393]}, "properties": {"highway": "street_lamp", "lamp_mount": "bent_mast", "lamp_type": "led", "opening_hours": "24/7", "ref": "Municipality"}, "geohash": "tg60djqgc"},{"type": "Feature", "geometry": {"type": "Point", "coordinates": [81.659432, 18.3978582]}, "properties": {"highway": "street_lamp", "lamp_mount": "bent_mast", "lamp_type": "led", "opening_hours": "24/7", "ref": "Municipality"}, "geohash": "tg60djnx6"},{"type": "Feature", "geometry": {"type": "Point", "coordinates": [81.6566587, 18.3879846]}, "properties": {"highway": "street_lamp", "lamp_mount": "bent_mast", "lamp_type": "led", "opening_hours": "24/7", "ref": "Municipality"}, "geohash": "tg60d5ktf"},{"type": "Feature", "geometry": {"type": "Point", "coordinates": [81.6562144, 18.3878098]}, "properties": {"highway": "street_lamp", "lamp_mount": "bent_mast", "lamp_type": "led", "opening_hours": "24/7", "ref": "Municipality"}, "geohash": "tg60d5khz"},{"type": "Feature", "geometry": {"type": "Point", "coordinates": [81.6628665, 18.4048108]}, "properties": {"highway": "street_lamp", "lamp_mount": "bent_mast", "lamp_type": "led", "opening_hours": "24/7", "ref": "Municipality"}, "geohash": "tg60dq3pf"},{"type": "Feature", "geometry": {"type": "Point", "coordinates": [81.6586235, 18.394504]}, "properties": {"highway": "street_lamp", "lamp_mount": "bent_mast", "lamp_type": "led", "opening_hours": "24/7", "ref": "Municipality"}, "geohash": "tg60dhtgz"},{"type": "Feature", "geometry": {"type": "Point", "coordinates": [81.6624382, 18.4033189]}, "properties": {"highway": "street_lamp", "lamp_mount": "bent_mast", "lamp_type": "led", "opening_hours": "24/7", "ref": "Municipality"}, "geohash": "tg60dq0z0"},{"type": "Feature", "geometry": {"type": "Point", "coordinates": [81.6612358, 18.4014984]}, "properties": {"highway": "street_lamp", "lamp_mount": "bent_mast", "lamp_type": "led", "opening_hours": "24/7", "ref": "Municipality"}, "geohash": "tg60djzuk"},{"type": "Feature", "geometry": {"type": "Point", "coordinates": [81.6598484, 18.3989994]}, "properties": {"highway": "street_lamp", "lamp_mount": "bent_mast", "lamp_type": "led", "opening_hours": "24/7", "ref": "Municipality"}, "geohash": "tg60djqvu"},{"type": "Feature", "geometry": {"type": "Point", "coordinates": [81.6587304, 18.3932318]}, "properties": {"highway": "street_lamp", "lamp_mount": "bent_mast", "lamp_type": "led", "opening_hours": "24/7", "ref": "Municipality"}, "geohash": "tg60dhqh6"},{"type": "Feature", "geometry": {"type": "Point", "coordinates": [81.6587404, 18.3930843]}, "properties": {"highway": "street_lamp", "lamp_mount": "bent_mast", "lamp_type": "led", "opening_hours": "24/7", "ref": "Municipality"}, "geohash": "tg60dhq56"},{"type": "Feature", "geometry": {"type": "Point", "coordinates": [81.6564706, 18.3879014]}, "properties": {"highway": "street_lamp", "lamp_mount": "bent_mast", "lamp_type": "led", "opening_hours": "24/7", "ref": "Municipality"}, "geohash": "tg60d5kmm"},{"type": "Feature", "geometry": {"type": "Point", "coordinates": [81.6577651, 18.3883652]}, "properties": {"highway": "street_lamp", "lamp_mount": "bent_mast", "lamp_type": "led", "opening_hours": "24/7", "ref": "Municipality"}, "geohash": "tg60d5mrg"},{"type": "Feature", "geometry": {"type": "Point", "coordinates": [81.6588142, 18.3924093]}, "properties": {"highway": "street_lamp", "lamp_mount": "bent_mast", "lamp_type": "led", "opening_hours": "24/7", "ref": "Municipality"}, "geohash": "tg60dhnps"},{"type": "Feature", "geometry": {"type": "Point", "coordinates": [81.6588362, 18.3921874]}, "properties": {"highway": "street_lamp", "lamp_mount": "bent_mast", "lamp_type": "led", "opening_hours": "24/7", "ref": "Municipality"}, "geohash": "tg60dhnnk"},{"type": "Feature", "geometry": {"type": "Point", "coordinates": [81.662597, 18.4038774]}, "properties": {"highway": "street_lamp", "lamp_mount": "bent_mast", "lamp_type": "led", "opening_hours": "24/7", "ref": "Municipality"}, "geohash": "tg60dq2fk"},{"type": "Feature", "geometry": {"type": "Point", "coordinates": [81.657135, 18.3881348]}, "properties": {"highway": "street_lamp", "lamp_mount": "bent_mast", "lamp_type": "led", "opening_hours": "24/7", "ref": "Municipality"}, "geohash": "tg60d5kyt"},{"type": "Feature", "geometry": {"type": "Point", "coordinates": [81.6627355, 18.4043999]}, "properties": {"highway": "street_lamp", "lamp_mount": "bent_mast", "lamp_type": "led", "opening_hours": "24/7", "ref": "Municipality"}, "geohash": "tg60dq2vr"},{"type": "Feature", "geometry": {"type": "Point", "coordinates": [81.65918, 18.3898847]}, "properties": {"highway": "street_lamp", "lamp_mount": "bent_mast", "lamp_type": "led", "opening_hours": "24/7", "ref": "Municipality"}, "geohash": "tg60d5y2u"},{"type": "Feature", "geometry": {"type": "Point", "coordinates": [81.6587776, 18.3961937]}, "properties": {"highway": "street_lamp", "lamp_mount": "bent_mast", "lamp_type": "led", "opening_hours": "24/7", "ref": "Municipality"}, "geohash": "tg60dhyje"},{"type": "Feature", "geometry": {"type": "Point", "coordinates": [81.6598286, 18.3989277]}, "properties": {"highway": "street_lamp", "lamp_mount": "bent_mast", "lamp_type": "led", "opening_hours": "24/7", "ref": "Municipality"}, "geohash": "tg60djqve"},{"type": "Feature", "geometry": {"type": "Point", "coordinates": [81.6589655, 18.3914748]}, "properties": {"highway": "street_lamp", "lamp_mount": "bent_mast", "lamp_type": "led", "opening_hours": "24/7", "ref": "Municipality"}, "geohash": "tg60dhn4p"},{"type": "Feature", "geometry": {"type": "Point", "coordinates": [81.6600928, 18.3996512]}, "properties": {"highway": "street_lamp", "lamp_mount": "bent_mast", "lamp_type": "led", "opening_hours": "24/7", "ref": "Municipality"}, "geohash": "tg60djx1d"},{"type": "Feature", "geometry": {"type": "Point", "coordinates": [81.6587259, 18.3932887]}, "properties": {"highway": "street_lamp", "lamp_mount": "bent_mast", "lamp_type": "led", "opening_hours": "24/7", "ref": "Municipality"}, "geohash": "tg60dhqhd"},{"type": "Feature", "geometry": {"type": "Point", "coordinates": [81.6598842, 18.3991053]}, "properties": {"highway": "street_lamp", "lamp_mount": "bent_mast", "lamp_type": "led", "opening_hours": "24/7", "ref": "Municipality"}, "geohash": "tg60djqyt"},{"type": "Feature", "geometry": {"type": "Point", "coordinates": [81.6626539, 18.4040993]}, "properties": {"highway": "street_lamp", "lamp_mount": "bent_mast", "lamp_type": "led", "opening_hours": "24/7", "ref": "Municipality"}, "geohash": "tg60dq2gt"},{"type": "Feature", "geometry": {"type": "Point", "coordinates": [81.6587088, 18.3934576]}, "properties": {"highway": "street_lamp", "lamp_mount": "bent_mast", "lamp_type": "led", "opening_hours": "24/7", "ref": "Municipality"}, "geohash": "tg60dhqj9"},{"type": "Feature", "geometry": {"type": "Point", "coordinates": [81.6593608, 18.3976414]}, "properties": {"highway": "street_lamp", "lamp_mount": "bent_mast", "lamp_type": "led", "opening_hours": "24/7", "ref": "Municipality"}, "geohash": "tg60djnw1"},{"type": "Feature", "geometry": {"type": "Point", "coordinates": [81.6638396, 18.4066687]}, "properties": {"highway": "street_lamp", "lamp_mount": "bent_mast", "lamp_type": "led", "opening_hours": "24/7", "ref": "Municipality"}, "geohash": "tg60dqcf9"},{"type": "Feature", "geometry": {"type": "Point", "coordinates": [81.6591104, 18.3903894]}, "properties": {"highway": "street_lamp", "lamp_mount": "bent_mast", "lamp_type": "led", "opening_hours": "24/7", "ref": "Municipality"}, "geohash": "tg60d5y7g"},{"type": "Feature", "geometry": {"type": "Point", "coordinates": [81.6596329, 18.3983902]}, "properties": {"highway": "street_lamp", "lamp_mount": "bent_mast", "lamp_type": "led", "opening_hours": "24/7", "ref": "Municipality"}, "geohash": "tg60djqdr"},{"type": "Feature", "geometry": {"type": "Point", "coordinates": [81.6572509, 18.3881732]}, "properties": {"highway": "street_lamp", "lamp_mount": "bent_mast", "lamp_type": "led", "opening_hours": "24/7", "ref": "Municipality"}, "geohash": "tg60d5kyz"},{"type": "Feature", "geometry": {"type": "Point", "coordinates": [81.6582319, 18.3885528]}, "properties": {"highway": "street_lamp", "lamp_mount": "bent_mast", "lamp_type": "led", "opening_hours": "24/7", "ref": "Municipality"}, "geohash": "tg60d5t9n"},{"type": "Feature", "geometry": {"type": "Point", "coordinates": [81.6587316, 18.3887346]}, "properties": {"highway": "street_lamp", "lamp_mount": "bent_mast", "lamp_type": "led", "opening_hours": "24/7", "ref": "Municipality"}, "geohash": "tg60d5w44"},{"type": "Feature", "geometry": {"type": "Point", "coordinates": [81.6622354, 18.4026139]}, "properties": {"highway": "street_lamp", "lamp_mount": "bent_mast", "lamp_type": "led", "opening_hours": "24/7", "ref": "Municipality"}, "geohash": "tg60dq0du"},{"type": "Feature", "geometry": {"type": "Point", "coordinates": [81.6632932, 18.406128]}, "properties": {"highway": "street_lamp", "lamp_mount": "bent_mast", "lamp_type": "led", "opening_hours": "24/7", "ref": "Municipality"}, "geohash": "tg60dq9rk"},{"type": "Feature", "geometry": {"type": "Point", "coordinates": [81.6637772, 18.4066281]}, "properties": {"highway": "street_lamp", "lamp_mount": "bent_mast", "lamp_type": "led", "opening_hours": "24/7", "ref": "Municipality"}, "geohash": "tg60dqcdr"},{"type": "Feature", "geometry": {"type": "Point", "coordinates": [81.6586686, 18.3939712]}, "properties": {"highway": "street_lamp", "lamp_mount": "bent_mast", "lamp_type": "led", "opening_hours": "24/7", "ref": "Municipality"}, "geohash": "tg60dhw08"},{"type": "Feature", "geometry": {"type": "Point", "coordinates": [81.6625114, 18.4035292]}, "properties": {"highway": "street_lamp", "lamp_mount": "bent_mast", "lamp_type": "led", "opening_hours": "24/7", "ref": "Municipality"}, "geohash": "tg60dq2b6"},{"type": "Feature", "geometry": {"type": "Point", "coordinates": [81.6560372, 18.3877369]}, "properties": {"highway": "street_lamp", "lamp_mount": "bent_mast", "lamp_type": "led", "opening_hours": "24/7", "ref": "Municipality"}, "geohash": "tg60d5kh7"},{"type": "Feature", "geometry": {"type": "Point", "coordinates": [81.6590974, 18.3905145]}, "properties": {"highway": "street_lamp", "lamp_mount": "bent_mast", "lamp_type": "led", "opening_hours": "24/7", "ref": "Municipality"}, "geohash": "tg60d5ykd"},{"type": "Feature", "geometry": {"type": "Point", "coordinates": [81.6579402, 18.3884469]}, "properties": {"highway": "street_lamp", "lamp_mount": "bent_mast", "lamp_type": "led", "opening_hours": "24/7", "ref": "Municipality"}, "geohash": "tg60d5t2r"},{"type": "Feature", "geometry": {"type": "Point", "coordinates": [81.6590508, 18.3908736]}, "properties": {"highway": "street_lamp", "lamp_mount": "bent_mast", "lamp_type": "led", "opening_hours": "24/7", "ref": "Municipality"}, "geohash": "tg60d5yq9"},{"type": "Feature", "geometry": {"type": "Point", "coordinates": [81.6588978, 18.391807]}, "properties": {"highway": "street_lamp", "lamp_mount": "bent_mast", "lamp_type": "led", "opening_hours": "24/7", "ref": "Municipality"}, "geohash": "tg60dhnhn"},{"type": "Feature", "geometry": {"type": "Point", "coordinates": [81.6634109, 18.406268]}, "properties": {"highway": "street_lamp", "lamp_mount": "bent_mast", "lamp_type": "led", "opening_hours": "24/7", "ref": "Municipality"}, "geohash": "tg60dqc2r"},{"type": "Feature", "geometry": {"type": "Point", "coordinates": [81.6632596, 18.406057]}, "properties": {"highway": "street_lamp", "lamp_mount": "bent_mast", "lamp_type": "led", "opening_hours": "24/7", "ref": "Municipality"}, "geohash": "tg60dq9r5"},{"type": "Feature", "geometry": {"type": "Point", "coordinates": [81.657037, 18.3881018]}, "properties": {"highway": "street_lamp", "lamp_mount": "bent_mast", "lamp_type": "led", "opening_hours": "24/7", "ref": "Municipality"}, "geohash": "tg60d5ky6"},{"type": "Feature", "geometry": {"type": "Point", "coordinates": [81.6613537, 18.4015718]}, "properties": {"highway": "street_lamp", "lamp_mount": "bent_mast", "lamp_type": "led", "opening_hours": "24/7", "ref": "Municipality"}, "geohash": "tg60djzuz"},{"type": "Feature", "geometry": {"type": "Point", "coordinates": [81.6591192, 18.3969843]}, "properties": {"highway": "street_lamp", "lamp_mount": "bent_mast", "lamp_type": "led", "opening_hours": "24/7", "ref": "Municipality"}, "geohash": "tg60djn65"},{"type": "Feature", "geometry": {"type": "Point", "coordinates": [81.6609172, 18.4012742]}, "properties": {"highway": "street_lamp", "lamp_mount": "bent_mast", "lamp_type": "led", "opening_hours": "24/7", "ref": "Municipality"}, "geohash": "tg60djzej"},{"type": "Feature", "geometry": {"type": "Point", "coordinates": [81.6629947, 18.405291]}, "properties": {"highway": "street_lamp", "lamp_mount": "bent_mast", "lamp_type": "led", "opening_hours": "24/7", "ref": "Municipality"}, "geohash": "tg60dq94t"},{"type": "Feature", "geometry": {"type": "Point", "coordinates": [81.6589941, 18.3966863]}, "properties": {"highway": "street_lamp", "lamp_mount": "bent_mast", "lamp_type": "led", "opening_hours": "24/7", "ref": "Municipality"}, "geohash": "tg60djn22"},{"type": "Feature", "geometry": {"type": "Point", "coordinates": [81.6587139, 18.3933715]}, "properties": {"highway": "street_lamp", "lamp_mount": "bent_mast", "lamp_type": "led", "opening_hours": "24/7", "ref": "Municipality"}, "geohash": "tg60dhqj1"},{"type": "Feature", "geometry": {"type": "Point", "coordinates": [81.6597659, 18.39876]}, "properties": {"highway": "street_lamp", "lamp_mount": "bent_mast", "lamp_type": "led", "opening_hours": "24/7", "ref": "Municipality"}, "geohash": "tg60djqud"},{"type": "Feature", "geometry": {"type": "Point", "coordinates": [81.6602766, 18.4001558]}, "properties": {"highway": "street_lamp", "lamp_mount": "bent_mast", "lamp_type": "led", "opening_hours": "24/7", "ref": "Municipality"}, "geohash": "tg60djxhw"},{"type": "Feature", "geometry": {"type": "Point", "coordinates": [81.6573663, 18.3882181]}, "properties": {"highway": "street_lamp", "lamp_mount": "bent_mast", "lamp_type": "led", "opening_hours": "24/7", "ref": "Municipality"}, "geohash": "tg60d5mp4"},{"type": "Feature", "geometry": {"type": "Point", "coordinates": [81.6585853, 18.3952022]}, "properties": {"highway": "street_lamp", "lamp_mount": "bent_mast", "lamp_type": "led", "opening_hours": "24/7", "ref": "Municipality"}, "geohash": "tg60dhtzy"},{"type": "Feature", "geometry": {"type": "Point", "coordinates": [81.6624035, 18.40319]}, "properties": {"highway": "street_lamp", "lamp_mount": "bent_mast", "lamp_type": "led", "opening_hours": "24/7", "ref": "Municipality"}, "geohash": "tg60dq0wr"},{"type": "Feature", "geometry": {"type": "Point", "coordinates": [81.6586949, 18.3959315]}, "properties": {"highway": "street_lamp", "lamp_mount": "bent_mast", "lamp_type": "led", "opening_hours": "24/7", "ref": "Municipality"}, "geohash": "tg60dhyh1"},{"type": "Feature", "geometry": {"type": "Point", "coordinates": [81.6631737, 18.4059076]}, "properties": {"highway": "street_lamp", "lamp_mount": "bent_mast", "lamp_type": "led", "opening_hours": "24/7", "ref": "Municipality"}, "geohash": "tg60dq9q1"},{"type": "Feature", "geometry": {"type": "Point", "coordinates": [81.6586701, 18.3938981]}, "properties": {"highway": "street_lamp", "lamp_mount": "bent_mast", "lamp_type": "led", "opening_hours": "24/7", "ref": "Municipality"}, "geohash": "tg60dhw00"},{"type": "Feature", "geometry": {"type": "Point", "coordinates": [81.6592522, 18.3890173]}, "properties": {"highway": "street_lamp", "lamp_mount": "bent_mast", "lamp_type": "led", "opening_hours": "24/7", "ref": "Municipality"}, "geohash": "tg60d5w7y"},{"type": "Feature", "geometry": {"type": "Point", "coordinates": [81.6591916, 18.3971831]}, "properties": {"highway": "street_lamp", "lamp_mount": "bent_mast", "lamp_type": "led", "opening_hours": "24/7", "ref": "Municipality"}, "geohash": "tg60djn7m"},{"type": "Feature", "geometry": {"type": "Point", "coordinates": [81.6631315, 18.4057476]}, "properties": {"highway": "street_lamp", "lamp_mount": "bent_mast", "lamp_type": "led", "opening_hours": "24/7", "ref": "Municipality"}, "geohash": "tg60dq9m2"},{"type": "Feature", "geometry": {"type": "Point", "coordinates": [81.6595503, 18.398155]}, "properties": {"highway": "street_lamp", "lamp_mount": "bent_mast", "lamp_type": "led", "opening_hours": "24/7", "ref": "Municipality"}, "geohash": "tg60djq9j"},{"type": "Feature", "geometry": {"type": "Point", "coordinates": [81.6628141, 18.4046479]}, "properties": {"highway": "street_lamp", "lamp_mount": "bent_mast", "lamp_type": "led", "opening_hours": "24/7", "ref": "Municipality"}, "geohash": "tg60dq3nc"},{"type": "Feature", "geometry": {"type": "Point", "coordinates": [81.6633455, 18.4062123]}, "properties": {"highway": "street_lamp", "lamp_mount": "bent_mast", "lamp_type": "led", "opening_hours": "24/7", "ref": "Municipality"}, "geohash": "tg60dq9rv"},{"type": "Feature", "geometry": {"type": "Point", "coordinates": [81.6614343, 18.4016261]}, "properties": {"highway": "street_lamp", "lamp_mount": "bent_mast", "lamp_type": "led", "opening_hours": "24/7", "ref": "Municipality"}, "geohash": "tg60dmbj1"},{"type": "Feature", "geometry": {"type": "Point", "coordinates": [81.6580758, 18.3884927]}, "properties": {"highway": "street_lamp", "lamp_mount": "bent_mast", "lamp_type": "led", "opening_hours": "24/7", "ref": "Municipality"}, "geohash": "tg60d5t8e"},{"type": "Feature", "geometry": {"type": "Point", "coordinates": [81.66098, 18.4013301]}, "properties": {"highway": "street_lamp", "lamp_mount": "bent_mast", "lamp_type": "led", "opening_hours": "24/7", "ref": "Municipality"}, "geohash": "tg60djzew"},{"type": "Feature", "geometry": {"type": "Point", "coordinates": [81.6591991, 18.3896881]}, "properties": {"highway": "street_lamp", "lamp_mount": "bent_mast", "lamp_type": "led", "opening_hours": "24/7", "ref": "Municipality"}, "geohash": "tg60d5wrt"},{"type": "Feature", "geometry": {"type": "Point", "coordinates": [81.6589887, 18.3912804]}, "properties": {"highway": "street_lamp", "lamp_mount": "bent_mast", "lamp_type": "led", "opening_hours": "24/7", "ref": "Municipality"}, "geohash": "tg60dhn2b"},{"type": "Feature", "geometry": {"type": "Point", "coordinates": [81.6585491, 18.3886644]}, "properties": {"highway": "street_lamp", "lamp_mount": "bent_mast", "lamp_type": "led", "opening_hours": "24/7", "ref": "Municipality"}, "geohash": "tg60d5tcw"},{"type": "Feature", "geometry": {"type": "Point", "coordinates": [81.658969, 18.3914013]}, "properties": {"highway": "street_lamp", "lamp_mount": "bent_mast", "lamp_type": "led", "opening_hours": "24/7", "ref": "Municipality"}, "geohash": "tg60dhn1x"},{"type": "Feature", "geometry": {"type": "Point", "coordinates": [81.6586346, 18.3886997]}, "properties": {"highway": "street_lamp", "lamp_mount": "bent_mast", "lamp_type": "led", "opening_hours": "24/7", "ref": "Municipality"}, "geohash": "tg60d5w1b"},{"type": "Feature", "geometry": {"type": "Point", "coordinates": [81.6587452, 18.3960349]}, "properties": {"highway": "street_lamp", "lamp_mount": "bent_mast", "lamp_type": "led", "opening_hours": "24/7", "ref": "Municipality"}, "geohash": "tg60dhyhd"},{"type": "Feature", "geometry": {"type": "Point", "coordinates": [81.6594778, 18.3979627]}, "properties": {"highway": "street_lamp", "lamp_mount": "bent_mast", "lamp_type": "led", "opening_hours": "24/7", "ref": "Municipality"}, "geohash": "tg60djnxg"},{"type": "Feature", "geometry": {"type": "Point", "coordinates": [81.6606818, 18.4009998]}, "properties": {"highway": "street_lamp", "lamp_mount": "bent_mast", "lamp_type": "led", "opening_hours": "24/7", "ref": "Municipality"}, "geohash": "tg60djz3x"},{"type": "Feature", "geometry": {"type": "Point", "coordinates": [81.6634631, 18.4063515]}, "properties": {"highway": "street_lamp", "lamp_mount": "bent_mast", "lamp_type": "led", "opening_hours": "24/7", "ref": "Municipality"}, "geohash": "tg60dqc8b"},{"type": "Feature", "geometry": {"type": "Point", "coordinates": [81.6625654, 18.4037726]}, "properties": {"highway": "street_lamp", "lamp_mount": "bent_mast", "lamp_type": "led", "opening_hours": "24/7", "ref": "Municipality"}, "geohash": "tg60dq2ce"},{"type": "Feature", "geometry": {"type": "Point", "coordinates": [81.6627751, 18.4045027]}, "properties": {"highway": "street_lamp", "lamp_mount": "bent_mast", "lamp_type": "led", "opening_hours": "24/7", "ref": "Municipality"}, "geohash": "tg60dq3jb"},{"type": "Feature", "geometry": {"type": "Point", "coordinates": [81.6586254, 18.3955517]}, "properties": {"highway": "street_lamp", "lamp_mount": "bent_mast", "lamp_type": "led", "opening_hours": "24/7", "ref": "Municipality"}, "geohash": "tg60dhvcz"},{"type": "Feature", "geometry": {"type": "Point", "coordinates": [81.6610804, 18.4013972]}, "properties": {"highway": "street_lamp", "lamp_mount": "bent_mast", "lamp_type": "led", "opening_hours": "24/7", "ref": "Municipality"}, "geohash": "tg60djzgc"},{"type": "Feature", "geometry": {"type": "Point", "coordinates": [81.6589454, 18.3965721]}, "properties": {"highway": "street_lamp", "lamp_mount": "bent_mast", "lamp_type": "led", "opening_hours": "24/7", "ref": "Municipality"}, "geohash": "tg60dhypz"},{"type": "Feature", "geometry": {"type": "Point", "coordinates": [81.6559171, 18.3876931]}, "properties": {"highway": "street_lamp", "lamp_mount": "bent_mast", "lamp_type": "led", "opening_hours": "24/7", "ref": "Municipality"}, "geohash": "tg60d5kh0"},{"type": "Feature", "geometry": {"type": "Point", "coordinates": [81.6586587, 18.3956803]}, "properties": {"highway": "street_lamp", "lamp_mount": "bent_mast", "lamp_type": "led", "opening_hours": "24/7", "ref": "Municipality"}, "geohash": "tg60dhy48"},{"type": "Feature", "geometry": {"type": "Point", "coordinates": [81.6606187, 18.4009159]}, "properties": {"highway": "street_lamp", "lamp_mount": "bent_mast", "lamp_type": "led", "opening_hours": "24/7", "ref": "Municipality"}, "geohash": "tg60djz3n"},{"type": "Feature", "geometry": {"type": "Point", "coordinates": [81.6602206, 18.4000316]}, "properties": {"highway": "street_lamp", "lamp_mount": "bent_mast", "lamp_type": "led", "opening_hours": "24/7", "ref": "Municipality"}, "geohash": "tg60djx5v"},{"type": "Feature", "geometry": {"type": "Point", "coordinates": [81.6585878, 18.3950164]}, "properties": {"highway": "street_lamp", "lamp_mount": "bent_mast", "lamp_type": "led", "opening_hours": "24/7", "ref": "Municipality"}, "geohash": "tg60dhtyx"},{"type": "Feature", "geometry": {"type": "Point", "coordinates": [81.6600521, 18.3995532]}, "properties": {"highway": "street_lamp", "lamp_mount": "bent_mast", "lamp_type": "led", "opening_hours": "24/7", "ref": "Municipality"}, "geohash": "tg60djx11"},{"type": "Feature", "geometry": {"type": "Point", "coordinates": [81.65889, 18.3919065]}, "properties": {"highway": "street_lamp", "lamp_mount": "bent_mast", "lamp_type": "led", "opening_hours": "24/7", "ref": "Municipality"}, "geohash": "tg60dhnhw"},{"type": "Feature", "geometry": {"type": "Point", "coordinates": [81.6592217, 18.3896115]}, "properties": {"highway": "street_lamp", "lamp_mount": "bent_mast", "lamp_type": "led", "opening_hours": "24/7", "ref": "Municipality"}, "geohash": "tg60d5wrm"},{"type": "Feature", "geometry": {"type": "Point", "coordinates": [81.6588349, 18.388765]}, "properties": {"highway": "street_lamp", "lamp_mount": "bent_mast", "lamp_type": "led", "opening_hours": "24/7", "ref": "Municipality"}, "geohash": "tg60d5w4k"},{"type": "Feature", "geometry": {"type": "Point", "coordinates": [81.6596858, 18.3985178]}, "properties": {"highway": "street_lamp", "lamp_mount": "bent_mast", "lamp_type": "led", "opening_hours": "24/7", "ref": "Municipality"}, "geohash": "tg60djqg0"},{"type": "Feature", "geometry": {"type": "Point", "coordinates": [81.6620491, 18.4021389]}, "properties": {"highway": "street_lamp", "lamp_mount": "bent_mast", "lamp_type": "led", "opening_hours": "24/7", "ref": "Municipality"}, "geohash": "tg60dq02p"},{"type": "Feature", "geometry": {"type": "Point", "coordinates": [81.6627251, 18.4042994]}, "properties": {"highway": "street_lamp", "lamp_mount": "bent_mast", "lamp_type": "led", "opening_hours": "24/7", "ref": "Municipality"}, "geohash": "tg60dq2uz"},{"type": "Feature", "geometry": {"type": "Point", "coordinates": [81.6587541, 18.392993]}, "properties": {"highway": "street_lamp", "lamp_mount": "bent_mast", "lamp_type": "led", "opening_hours": "24/7", "ref": "Municipality"}, "geohash": "tg60dhq4f"},{"type": "Feature", "geometry": {"type": "Point", "coordinates": [81.6629091, 18.4050062]}, "properties": {"highway": "street_lamp", "lamp_mount": "bent_mast", "lamp_type": "led", "opening_hours": "24/7", "ref": "Municipality"}, "geohash": "tg60dq90g"},{"type": "Feature", "geometry": {"type": "Point", "coordinates": [81.6618877, 18.401992]}, "properties": {"highway": "street_lamp", "lamp_mount": "bent_mast", "lamp_type": "led", "opening_hours": "24/7", "ref": "Municipality"}, "geohash": "tg60dmbr7"},{"type": "Feature", "geometry": {"type": "Point", "coordinates": [81.6592307, 18.3895089]}, "properties": {"highway": "street_lamp", "lamp_mount": "bent_mast", "lamp_type": "led", "opening_hours": "24/7", "ref": "Municipality"}, "geohash": "tg60d5wqt"},{"type": "Feature", "geometry": {"type": "Point", "coordinates": [81.6614904, 18.40167]}, "properties": {"highway": "street_lamp", "lamp_mount": "bent_mast", "lamp_type": "led", "opening_hours": "24/7", "ref": "Municipality"}, "geohash": "tg60dmbj6"},{"type": "Feature", "geometry": {"type": "Point", "coordinates": [81.6611606, 18.4014482]}, "properties": {"highway": "street_lamp", "lamp_mount": "bent_mast", "lamp_type": "led", "opening_hours": "24/7", "ref": "Municipality"}, "geohash": "tg60djzu4"},{"type": "Feature", "geometry": {"type": "Point", "coordinates": [81.6592632, 18.3891923]}, "properties": {"highway": "street_lamp", "lamp_mount": "bent_mast", "lamp_type": "led", "opening_hours": "24/7", "ref": "Municipality"}, "geohash": "tg60d5wky"},{"type": "Feature", "geometry": {"type": "Point", "coordinates": [81.6635541, 18.4064247]}, "properties": {"highway": "street_lamp", "lamp_mount": "bent_mast", "lamp_type": "led", "opening_hours": "24/7", "ref": "Municipality"}, "geohash": "tg60dqc94"},{"type": "Feature", "geometry": {"type": "Point", "coordinates": [81.6588647, 18.3963695]}, "properties": {"highway": "street_lamp", "lamp_mount": "bent_mast", "lamp_type": "led", "opening_hours": "24/7", "ref": "Municipality"}, "geohash": "tg60dhynt"},{"type": "Feature", "geometry": {"type": "Point", "coordinates": [81.6589352, 18.3915622]}, "properties": {"highway": "street_lamp", "lamp_mount": "bent_mast", "lamp_type": "led", "opening_hours": "24/7", "ref": "Municipality"}, "geohash": "tg60dhn4x"},{"type": "Feature", "geometry": {"type": "Point", "coordinates": [81.6626318, 18.4040056]}, "properties": {"highway": "street_lamp", "lamp_mount": "bent_mast", "lamp_type": "led", "opening_hours": "24/7", "ref": "Municipality"}, "geohash": "tg60dq2gj"},{"type": "Feature", "geometry": {"type": "Point", "coordinates": [81.6589119, 18.3964885]}, "properties": {"highway": "street_lamp", "lamp_mount": "bent_mast", "lamp_type": "led", "opening_hours": "24/7", "ref": "Municipality"}, "geohash": "tg60dhypq"},{"type": "Feature", "geometry": {"type": "Point", "coordinates": [81.6590097, 18.3910758]}, "properties": {"highway": "street_lamp", "lamp_mount": "bent_mast", "lamp_type": "led", "opening_hours": "24/7", "ref": "Municipality"}, "geohash": "tg60d5yrb"},{"type": "Feature", "geometry": {"type": "Point", "coordinates": [81.6583342, 18.3885843]}, "properties": {"highway": "street_lamp", "lamp_mount": "bent_mast", "lamp_type": "led", "opening_hours": "24/7", "ref": "Municipality"}, "geohash": "tg60d5tc3"},{"type": "Feature", "geometry": {"type": "Point", "coordinates": [81.6608571, 18.4012117]}, "properties": {"highway": "street_lamp", "lamp_mount": "bent_mast", "lamp_type": "led", "opening_hours": "24/7", "ref": "Municipality"}, "geohash": "tg60djzdg"},{"type": "Feature", "geometry": {"type": "Point", "coordinates": [81.6592936, 18.3974527]}, "properties": {"highway": "street_lamp", "lamp_mount": "bent_mast", "lamp_type": "led", "opening_hours": "24/7", "ref": "Municipality"}, "geohash": "tg60djnkz"},{"type": "Feature", "geometry": {"type": "Point", "coordinates": [81.6605223, 18.4007374]}, "properties": {"highway": "street_lamp", "lamp_mount": "bent_mast", "lamp_type": "led", "opening_hours": "24/7", "ref": "Municipality"}, "geohash": "tg60djz2h"},{"type": "Feature", "geometry": {"type": "Point", "coordinates": [81.6590291, 18.3967693]}, "properties": {"highway": "street_lamp", "lamp_mount": "bent_mast", "lamp_type": "led", "opening_hours": "24/7", "ref": "Municipality"}, "geohash": "tg60djn2c"},{"type": "Feature", "geometry": {"type": "Point", "coordinates": [81.6586668, 18.3957954]}, "properties": {"highway": "street_lamp", "lamp_mount": "bent_mast", "lamp_type": "led", "opening_hours": "24/7", "ref": "Municipality"}, "geohash": "tg60dhy52"},{"type": "Feature", "geometry": {"type": "Point", "coordinates": [81.663917, 18.4067246]}, "properties": {"highway": "street_lamp", "lamp_mount": "bent_mast", "lamp_type": "led", "opening_hours": "24/7", "ref": "Municipality"}, "geohash": "tg60dqcfg"},{"type": "Feature", "geometry": {"type": "Point", "coordinates": [81.6591594, 18.3899981]}, "properties": {"highway": "street_lamp", "lamp_mount": "bent_mast", "lamp_type": "led", "opening_hours": "24/7", "ref": "Municipality"}, "geohash": "tg60d5y3s"},{"type": "Feature", "geometry": {"type": "Point", "coordinates": [81.6615788, 18.4017273]}, "properties": {"highway": "street_lamp", "lamp_mount": "bent_mast", "lamp_type": "led", "opening_hours": "24/7", "ref": "Municipality"}, "geohash": "tg60dmbju"},{"type": "Feature", "geometry": {"type": "Point", "coordinates": [81.6590791, 18.3906017]}, "properties": {"highway": "street_lamp", "lamp_mount": "bent_mast", "lamp_type": "led", "opening_hours": "24/7", "ref": "Municipality"}, "geohash": "tg60d5ym4"},{"type": "Feature", "geometry": {"type": "Point", "coordinates": [81.6605651, 18.4008239]}, "properties": {"highway": "street_lamp", "lamp_mount": "bent_mast", "lamp_type": "led", "opening_hours": "24/7", "ref": "Municipality"}, "geohash": "tg60djz2t"},{"type": "Feature", "geometry": {"type": "Point", "coordinates": [81.6588226, 18.3962723]}, "properties": {"highway": "street_lamp", "lamp_mount": "bent_mast", "lamp_type": "led", "opening_hours": "24/7", "ref": "Municipality"}, "geohash": "tg60dhynh"},{"type": "Feature", "geometry": {"type": "Point", "coordinates": [81.6640072, 18.4067722]}, "properties": {"highway": "street_lamp", "lamp_mount": "bent_mast", "lamp_type": "led", "opening_hours": "24/7", "ref": "Municipality"}, "geohash": "tg60dqcgj"},{"type": "Feature", "geometry": {"type": "Point", "coordinates": [81.6621, 18.4022246]}, "properties": {"highway": "street_lamp", "lamp_mount": "bent_mast", "lamp_type": "led", "opening_hours": "24/7", "ref": "Municipality"}, "geohash": "tg60dq088"},{"type": "Feature", "geometry": {"type": "Point", "coordinates": [81.6599722, 18.3993353]}, "properties": {"highway": "street_lamp", "lamp_mount": "bent_mast", "lamp_type": "led", "opening_hours": "24/7", "ref": "Municipality"}, "geohash": "tg60djqzz"},{"type": "Feature", "geometry": {"type": "Point", "coordinates": [81.6586949, 18.3936245]}, "properties": {"highway": "street_lamp", "lamp_mount": "bent_mast", "lamp_type": "led", "opening_hours": "24/7", "ref": "Municipality"}, "geohash": "tg60dhqn9"},{"type": "Feature", "geometry": {"type": "Point", "coordinates": [81.6616604, 18.4017981]}, "properties": {"highway": "street_lamp", "lamp_mount": "bent_mast", "lamp_type": "led", "opening_hours": "24/7", "ref": "Municipality"}, "geohash": "tg60dmbnn"},{"type": "Feature", "geometry": {"type": "Point", "coordinates": [81.6623312, 18.4028988]}, "properties": {"highway": "street_lamp", "lamp_mount": "bent_mast", "lamp_type": "led", "opening_hours": "24/7", "ref": "Municipality"}, "geohash": "tg60dq0sw"},{"type": "Feature", "geometry": {"type": "Point", "coordinates": [83.4070989, 18.0598044]}, "properties": {"highway": "street_lamp"}, "geohash": "tg5q9zxjy"},{"type": "Feature", "geometry": {"type": "Point", "coordinates": [83.407283, 18.0598257]}, "properties": {"highway": "street_lamp"}, "geohash": "tg5q9zxq4"},{"type": "Feature", "geometry": {"type": "Point", "coordinates": [83.4076856, 18.0601194]}, "properties": {"highway": "street_lamp"}, "geohash": "tg5q9zxxg"},{"type": "Feature", "geometry": {"type": "Point", "coordinates": [83.4062354, 18.0600285]}, "properties": {"highway": "street_lamp"}, "geohash": "tg5q9zwx6"},{"type": "Feature", "geometry": {"type": "Point", "coordinates": [83.4064087, 18.0599865]}, "properties": {"highway": "street_lamp"}, "geohash": "tg5q9zwxn"},{"type": "Feature", "geometry": {"type": "Point", "coordinates": [83.406563, 18.0599453]}, "properties": {"highway": "street_lamp"}, "geohash": "tg5q9zwyc"},{"type": "Feature", "geometry": {"type": "Point", "coordinates": [83.406721, 18.0599038]}, "properties": {"highway": "street_lamp"}, "geohash": "tg5q9zwyt"},{"type": "Feature", "geometry": {"type": "Point", "coordinates": [83.4068916, 18.0598589]}, "properties": {"highway": "street_lamp"}, "geohash": "tg5q9zxn3"},{"type": "Feature", "geometry": {"type": "Point", "coordinates": [83.4073993, 18.0599082]}, "properties": {"highway": "street_lamp"}, "geohash": "tg5q9zxqt"},{"type": "Feature", "geometry": {"type": "Point", "coordinates": [83.4075101, 18.0599931]}, "properties": {"highway": "street_lamp"}, "geohash": "tg5q9zxrp"},{"type": "Feature", "geometry": {"type": "Point", "coordinates": [83.4076117, 18.0600655]}, "properties": {"highway": "street_lamp"}, "geohash": "tg5q9zxxd"},{"type": "Feature", "geometry": {"type": "Point", "coordinates": [83.1864022, 17.9083647]}, "properties": {"direction": "10", "highway": "street_lamp", "material": "concrete", "power": "pole"}, "geohash": "tg5juun7z"},{"type": "Feature", "geometry": {"type": "Point", "coordinates": [83.1866685, 17.9083118]}, "properties": {"direction": "10", "highway": "street_lamp"}, "geohash": "tg5juunem"},{"type": "Feature", "geometry": {"type": "Point", "coordinates": [83.1868819, 17.9082607]}, "properties": {"direction": "10", "highway": "street_lamp"}, "geohash": "tg5juung4"},{"type": "Feature", "geometry": {"type": "Point", "coordinates": [83.1872461, 17.908251]}, "properties": {"direction": "165", "highway": "street_lamp", "lamp_type": "led"}, "geohash": "tg5juup55"},{"type": "Feature", "geometry": {"type": "Point", "coordinates": [83.1873156, 17.9085518]}, "properties": {"direction": "30", "highway": "street_lamp", "lamp_type": "led"}, "geohash": "tg5juuphu"},{"type": "Feature", "geometry": {"type": "Point", "coordinates": [83.1870866, 17.9086021]}, "properties": {"highway": "street_lamp"}, "geohash": "tg5juunvp"},{"type": "Feature", "geometry": {"type": "Point", "coordinates": [83.1867748, 17.9086721]}, "properties": {"direction": "10", "highway": "street_lamp", "lamp_type": "led"}, "geohash": "tg5juunv8"},{"type": "Feature", "geometry": {"type": "Point", "coordinates": [83.1871819, 17.9080061]}, "properties": {"direction": "110", "highway": "street_lamp", "lamp_type": "led"}, "geohash": "tg5juup19"},{"type": "Feature", "geometry": {"type": "Point", "coordinates": [83.1875004, 17.9081278]}, "properties": {"direction": "10", "highway": "street_lamp", "lamp_type": "led"}, "geohash": "tg5juup63"},{"type": "Feature", "geometry": {"type": "Point", "coordinates": [83.1879233, 17.9080384]}, "properties": {"direction": "10", "highway": "street_lamp", "lamp_type": "led"}, "geohash": "tg5juup9g"},{"type": "Feature", "geometry": {"type": "Point", "coordinates": [83.1876731, 17.9080913]}, "properties": {"direction": "10", "highway": "street_lamp", "lamp_type": "led"}, "geohash": "tg5juup6j"},{"type": "Feature", "geometry": {"type": "Point", "coordinates": [83.1873837, 17.9087809]}, "properties": {"direction": "100", "highway": "street_lamp"}, "geohash": "tg5juupnn"},{"type": "Feature", "geometry": {"type": "Point", "coordinates": [83.1874287, 17.9089435]}, "properties": {"direction": "105", "highway": "street_lamp"}, "geohash": "tg5juuppp"},{"type": "Feature", "geometry": {"type": "Point", "coordinates": [83.1874528, 17.9090322]}, "properties": {"direction": "45", "highway": "street_lamp"}, "geohash": "tg5juupr8"},{"type": "Feature", "geometry": {"type": "Point", "coordinates": [83.1872474, 17.9090732]}, "properties": {"direction": "10", "highway": "street_lamp", "lamp_type": "led"}, "geohash": "tg5juuppg"},{"type": "Feature", "geometry": {"type": "Point", "coordinates": [83.1870139, 17.9091191]}, "properties": {"direction": "5", "highway": "street_lamp", "lamp_type": "led"}, "geohash": "tg5juuqbj"},{"type": "Feature", "geometry": {"type": "Point", "coordinates": [83.2402903, 17.9930817]}, "properties": {"highway": "street_lamp", "lamp_type": "led", "source": "local knowledge", "support": "pole"}, "geohash": "tg5nq5t9r"},{"type": "Feature", "geometry": {"type": "Point", "coordinates": [83.3067885, 17.7213886]}, "properties": {"highway": "street_lamp"}, "geohash": "tg5hzdn4s"},{"type": "Feature", "geometry": {"type": "Point", "coordinates": [83.3067513, 17.7212744]}, "properties": {"highway": "street_lamp"}, "geohash": "tg5hzdn1u"},{"type": "Feature", "geometry": {"type": "Point", "coordinates": [83.30673, 17.7210362]}, "properties": {"highway": "street_lamp"}, "geohash": "tg5hzdn0e"},{"type": "Feature", "geometry": {"type": "Point", "coordinates": [83.3066112, 17.7209098]}, "properties": {"highway": "street_lamp"}, "geohash": "tg5hz9ypb"},{"type": "Feature", "geometry": {"type": "Point", "coordinates": [83.3065455, 17.7208278]}, "properties": {"highway": "street_lamp"}, "geohash": "tg5hz9vzr"},{"type": "Feature", "geometry": {"type": "Point", "coordinates": [83.3064316, 17.7206923]}, "properties": {"highway": "street_lamp"}, "geohash": "tg5hz9vys"},{"type": "Feature", "geometry": {"type": "Point", "coordinates": [83.3063072, 17.7205399]}, "properties": {"highway": "street_lamp"}, "geohash": "tg5hz9vv9"},{"type": "Feature", "geometry": {"type": "Point", "coordinates": [83.3061551, 17.720502]}, "properties": {"highway": "street_lamp"}, "geohash": "tg5hz9vtq"},{"type": "Feature", "geometry": {"type": "Point", "coordinates": [83.3059762, 17.7205786]}, "properties": {"highway": "street_lamp"}, "geohash": "tg5hz9vtc"},{"type": "Feature", "geometry": {"type": "Point", "coordinates": [83.3057833, 17.7206427]}, "properties": {"highway": "street_lamp"}, "geohash": "tg5hz9vqj"},{"type": "Feature", "geometry": {"type": "Point", "coordinates": [83.3050221, 17.7211015]}, "properties": {"highway": "street_lamp"}, "geohash": "tg5hzdhbg"},{"type": "Feature", "geometry": {"type": "Point", "coordinates": [83.3048301, 17.721186]}, "properties": {"highway": "street_lamp"}, "geohash": "tg5hzdh9r"},{"type": "Feature", "geometry": {"type": "Point", "coordinates": [83.3046945, 17.7212051]}, "properties": {"highway": "street_lamp"}, "geohash": "tg5hzdh9s"},{"type": "Feature", "geometry": {"type": "Point", "coordinates": [83.3045474, 17.7211459]}, "properties": {"highway": "street_lamp"}, "geohash": "tg5hzdh90"},{"type": "Feature", "geometry": {"type": "Point", "coordinates": [83.3057673, 17.7226667]}, "properties": {"highway": "street_lamp"}, "geohash": "tg5hzdm6j"},{"type": "Feature", "geometry": {"type": "Point", "coordinates": [83.3070423, 17.7217222]}, "properties": {"highway": "street_lamp"}, "geohash": "tg5hzdnkd"},{"type": "Feature", "geometry": {"type": "Point", "coordinates": [83.3067429, 17.7214244]}, "properties": {"highway": "street_lamp"}, "geohash": "tg5hzdn4g"},{"type": "Feature", "geometry": {"type": "Point", "coordinates": [83.3068443, 17.7215243]}, "properties": {"highway": "street_lamp"}, "geohash": "tg5hzdn5q"},{"type": "Feature", "geometry": {"type": "Point", "coordinates": [83.3056645, 17.7207302]}, "properties": {"highway": "street_lamp"}, "geohash": "tg5hz9vqd"},{"type": "Feature", "geometry": {"type": "Point", "coordinates": [83.305533, 17.7208774]}, "properties": {"highway": "street_lamp"}, "geohash": "tg5hz9vpx"},{"type": "Feature", "geometry": {"type": "Point", "coordinates": [83.3053855, 17.720976]}, "properties": {"highway": "street_lamp"}, "geohash": "tg5hzdj0h"},{"type": "Feature", "geometry": {"type": "Point", "coordinates": [83.3052128, 17.7210397]}, "properties": {"highway": "street_lamp"}, "geohash": "tg5hzdj08"},{"type": "Feature", "geometry": {"type": "Point", "coordinates": [83.3042475, 17.721559]}, "properties": {"highway": "street_lamp"}, "geohash": "tg5hzdh79"},{"type": "Feature", "geometry": {"type": "Point", "coordinates": [83.3043573, 17.721232]}, "properties": {"highway": "street_lamp"}, "geohash": "tg5hzdh3s"},{"type": "Feature", "geometry": {"type": "Point", "coordinates": [83.3041426, 17.7213612]}, "properties": {"highway": "street_lamp"}, "geohash": "tg5hzdh4r"},{"type": "Feature", "geometry": {"type": "Point", "coordinates": [83.3040868, 17.7215104]}, "properties": {"highway": "street_lamp"}, "geohash": "tg5hzdh5m"},{"type": "Feature", "geometry": {"type": "Point", "coordinates": [83.304131, 17.7216689]}, "properties": {"highway": "street_lamp"}, "geohash": "tg5hzdhhn"},{"type": "Feature", "geometry": {"type": "Point", "coordinates": [83.3042564, 17.7217808]}, "properties": {"highway": "street_lamp"}, "geohash": "tg5hzdhkc"},{"type": "Feature", "geometry": {"type": "Point", "coordinates": [83.3043958, 17.721916]}, "properties": {"highway": "street_lamp"}, "geohash": "tg5hzdhmt"},{"type": "Feature", "geometry": {"type": "Point", "coordinates": [83.3045459, 17.7220596]}, "properties": {"highway": "street_lamp"}, "geohash": "tg5hzdhw2"},{"type": "Feature", "geometry": {"type": "Point", "coordinates": [83.3046548, 17.7222063]}, "properties": {"highway": "street_lamp"}, "geohash": "tg5hzdhx7"},{"type": "Feature", "geometry": {"type": "Point", "coordinates": [83.3047365, 17.7223652]}, "properties": {"highway": "street_lamp"}, "geohash": "tg5hzdk8m"},{"type": "Feature", "geometry": {"type": "Point", "coordinates": [83.3047782, 17.7225168]}, "properties": {"highway": "street_lamp"}, "geohash": "tg5hzdk9n"},{"type": "Feature", "geometry": {"type": "Point", "coordinates": [83.3048606, 17.7226916]}, "properties": {"highway": "street_lamp"}, "geohash": "tg5hzdkdp"},{"type": "Feature", "geometry": {"type": "Point", "coordinates": [83.3049492, 17.7228656]}, "properties": {"highway": "street_lamp"}, "geohash": "tg5hzdkg4"},{"type": "Feature", "geometry": {"type": "Point", "coordinates": [83.3050595, 17.7229423]}, "properties": {"highway": "street_lamp"}, "geohash": "tg5hzdkgs"},{"type": "Feature", "geometry": {"type": "Point", "coordinates": [83.3051882, 17.7230197]}, "properties": {"highway": "street_lamp"}, "geohash": "tg5hzdkup"},{"type": "Feature", "geometry": {"type": "Point", "coordinates": [83.3053699, 17.7230765]}, "properties": {"highway": "street_lamp"}, "geohash": "tg5hzdmh7"},{"type": "Feature", "geometry": {"type": "Point", "coordinates": [83.3055055, 17.7230204]}, "properties": {"highway": "street_lamp"}, "geohash": "tg5hzdmhn"},{"type": "Feature", "geometry": {"type": "Point", "coordinates": [83.3056609, 17.722917]}, "properties": {"highway": "street_lamp"}, "geohash": "tg5hzdm76"},{"type": "Feature", "geometry": {"type": "Point", "coordinates": [83.305963, 17.7226179]}, "properties": {"highway": "street_lamp"}, "geohash": "tg5hzdm99"},{"type": "Feature", "geometry": {"type": "Point", "coordinates": [83.4055627, 18.0610628]}, "properties": {"highway": "street_lamp"}, "geohash": "tg5q9zyj6"},{"type": "Feature", "geometry": {"type": "Point", "coordinates": [83.3483914, 17.8264565]}, "properties": {"highway": "street_lamp"}, "geohash": "tg5m2thqw"},{"type": "Feature", "geometry": {"type": "Point", "coordinates": [82.8441058, 18.7014661]}, "properties": {"highway": "street_lamp", "lamp_mount": "straight_mast", "lamp_type": "electric", "support": "pole"}, "geohash": "tg6fmhmpz"},{"type": "Feature", "geometry": {"type": "Point", "coordinates": [82.8436425, 18.7012311]}, "properties": {"highway": "street_lamp", "lamp_mount": "straight_mast", "lamp_type": "electric", "support": "pole"}, "geohash": "tg6fmhkys"},{"type": "Feature", "geometry": {"type": "Point", "coordinates": [82.8432477, 18.7010245]}, "properties": {"highway": "street_lamp", "lamp_mount": "straight_mast", "lamp_type": "electric", "support": "pole"}, "geohash": "tg6fmhkt7"},{"type": "Feature", "geometry": {"type": "Point", "coordinates": [82.8444545, 18.7016247]}, "properties": {"highway": "street_lamp", "lamp_mount": "straight_mast", "lamp_type": "electric", "support": "pole"}, "geohash": "tg6fmht2z"},{"type": "Feature", "geometry": {"type": "Point", "coordinates": [82.8447946, 18.7016755]}, "properties": {"highway": "street_lamp", "lamp_mount": "straight_mast", "lamp_type": "electric", "support": "pole"}, "geohash": "tg6fmht9p"},{"type": "Feature", "geometry": {"type": "Point", "coordinates": [82.8454815, 18.7020223]}, "properties": {"highway": "street_lamp", "lamp_mount": "straight_mast", "lamp_type": "electric", "support": "pole"}, "geohash": "tg6fmhw5p"},{"type": "Feature", "geometry": {"type": "Point", "coordinates": [82.8457504, 18.70219]}, "properties": {"highway": "street_lamp", "lamp_mount": "straight_mast", "lamp_type": "electric", "support": "pole"}, "geohash": "tg6fmhwkj"},{"type": "Feature", "geometry": {"type": "Point", "coordinates": [82.8462229, 18.7024079]}, "properties": {"highway": "street_lamp", "lamp_mount": "straight_mast", "lamp_type": "electric", "support": "pole"}, "geohash": "tg6fmhwv2"},{"type": "Feature", "geometry": {"type": "Point", "coordinates": [82.8471926, 18.7029173]}, "properties": {"highway": "street_lamp", "lamp_mount": "straight_mast", "lamp_type": "electric", "support": "pole"}, "geohash": "tg6fmhz2r"},{"type": "Feature", "geometry": {"type": "Point", "coordinates": [82.8415499, 18.6994099]}, "properties": {"highway": "street_lamp", "lamp_mount": "straight_mast", "lamp_type": "electric", "support": "pole"}, "geohash": "tg6fmh57u"},{"type": "Feature", "geometry": {"type": "Point", "coordinates": [82.8451969, 18.7018414]}, "properties": {"highway": "street_lamp", "lamp_mount": "straight_mast", "lamp_type": "electric", "support": "pole"}, "geohash": "tg6fmhw41"},{"type": "Feature", "geometry": {"type": "Point", "coordinates": [82.8414636, 18.699061]}, "properties": {"highway": "street_lamp", "lamp_mount": "straight_mast", "lamp_type": "electric", "support": "pole"}, "geohash": "tg6fmh53f"},{"type": "Feature", "geometry": {"type": "Point", "coordinates": [82.8459823, 18.7023178]}, "properties": {"highway": "street_lamp", "lamp_mount": "straight_mast", "lamp_type": "electric", "support": "pole"}, "geohash": "tg6fmhwsg"},{"type": "Feature", "geometry": {"type": "Point", "coordinates": [83.3481763, 17.8265777]}, "properties": {"highway": "street_lamp"}, "geohash": "tg5m2thr3"},{"type": "Feature", "geometry": {"type": "Point", "coordinates": [82.8418354, 18.700043]}, "properties": {"highway": "street_lamp", "lamp_mount": "straight_mast", "lamp_type": "electric", "support": "pole"}, "geohash": "tg6fmh5xd"},{"type": "Feature", "geometry": {"type": "Point", "coordinates": [82.8421046, 18.7003961]}, "properties": {"highway": "street_lamp", "lamp_mount": "straight_mast", "lamp_type": "electric", "support": "pole"}, "geohash": "tg6fmh7c8"},{"type": "Feature", "geometry": {"type": "Point", "coordinates": [82.8427719, 18.7007987]}, "properties": {"highway": "street_lamp", "lamp_mount": "straight_mast", "lamp_type": "electric", "support": "pole"}, "geohash": "tg6fmhkk0"},{"type": "Feature", "geometry": {"type": "Point", "coordinates": [82.8416072, 18.6996048]}, "properties": {"highway": "street_lamp", "lamp_mount": "straight_mast", "lamp_type": "electric", "support": "pole"}, "geohash": "tg6fmh5mj"},{"type": "Feature", "geometry": {"type": "Point", "coordinates": [82.8416989, 18.699849]}, "properties": {"highway": "street_lamp", "lamp_mount": "straight_mast", "lamp_type": "electric", "support": "pole"}, "geohash": "tg6fmh5qx"},{"type": "Feature", "geometry": {"type": "Point", "coordinates": [83.347424, 17.8268041]}, "properties": {"highway": "street_lamp"}, "geohash": "tg5m2t78x"},{"type": "Feature", "geometry": {"type": "Point", "coordinates": [83.3471754, 17.8268372]}, "properties": {"highway": "street_lamp"}, "geohash": "tg5m2t78c"},{"type": "Feature", "geometry": {"type": "Point", "coordinates": [80.6096629, 17.5603532]}, "properties": {"highway": "street_lamp"}, "geohash": "tg17fkf0m"},{"type": "Feature", "geometry": {"type": "Point", "coordinates": [82.8466958, 18.7026679]}, "properties": {"highway": "street_lamp", "lamp_mount": "straight_mast", "lamp_type": "electric", "support": "pole"}, "geohash": "tg6fmhxng"},{"type": "Feature", "geometry": {"type": "Point", "coordinates": [83.1218004, 17.6886394]}, "properties": {"highway": "street_lamp", "lamp_type": "led"}, "geohash": "tg5hekp7y"},{"type": "Feature", "geometry": {"type": "Point", "coordinates": [83.1222053, 17.6888301]}, "properties": {"highway": "street_lamp", "lamp_type": "led"}, "geohash": "tg5hekpsz"},{"type": "Feature", "geometry": {"type": "Point", "coordinates": [83.1228885, 17.6889075]}, "properties": {"highway": "street_lamp"}, "geohash": "tg5hes0jr"},{"type": "Feature", "geometry": {"type": "Point", "coordinates": [83.1225295, 17.6888247]}, "properties": {"highway": "street_lamp"}, "geohash": "tg5hekpuz"},{"type": "Feature", "geometry": {"type": "Point", "coordinates": [83.4063227, 18.0631242]}, "properties": {"highway": "street_lamp"}, "geohash": "tg5qcbq9k"},{"type": "Feature", "geometry": {"type": "Point", "coordinates": [83.406371, 18.0633894]}, "properties": {"highway": "street_lamp"}, "geohash": "tg5qcbqdv"},{"type": "Feature", "geometry": {"type": "Point", "coordinates": [83.4064367, 18.063761]}, "properties": {"highway": "street_lamp"}, "geohash": "tg5qcbqtn"},{"type": "Feature", "geometry": {"type": "Point", "coordinates": [83.2101066, 17.7999867]}, "properties": {"highway": "street_lamp"}, "geohash": "tg5jm2ru2"},{"type": "Feature", "geometry": {"type": "Point", "coordinates": [83.4052206, 18.0595831]}, "properties": {"direction": "107", "highway": "street_lamp", "lamp_type": "LED", "support": "pole"}, "geohash": "tg5q9ztud"},{"type": "Feature", "geometry": {"type": "Point", "coordinates": [83.4053354, 18.0599442]}, "properties": {"highway": "street_lamp", "lamp_type": "electric", "support": "pole"}, "geohash": "tg5q9ztyv"},{"type": "Feature", "geometry": {"type": "Point", "coordinates": [83.4055305, 18.0607619]}, "properties": {"highway": "street_lamp", "lamp_mount": "pole", "lamp_type": "electric", "support": "pole"}, "geohash": "tg5q9zy59"},{"type": "Feature", "geometry": {"type": "Point", "coordinates": [83.4063035, 18.0609776]}, "properties": {"direction": "298", "highway": "street_lamp", "lamp_type": "electric", "support": "pole"}, "geohash": "tg5q9zysg"},{"type": "Feature", "geometry": {"type": "Point", "coordinates": [83.4063669, 18.0609312]}, "properties": {"highway": "street_lamp", "lamp_type": "electric", "support": "pole"}, "geohash": "tg5q9zyst"},{"type": "Feature", "geometry": {"type": "Point", "coordinates": [81.6189483, 21.2688913]}, "properties": {"highway": "street_lamp"}, "geohash": "tgf0crch7"},{"type": "Feature", "geometry": {"type": "Point", "coordinates": [81.6188966, 21.2691979]}, "properties": {"highway": "street_lamp"}, "geohash": "tgf0crcn4"}]}