{"type":"FeatureCollection","features":[{"type": "Feature", "geometry": {"type": "Point", "coordinates": [75.1398082, 24.4794915]}, "properties": {"highway": "street_lamp", "lamp_type": "solar_lamp"}, "geohash": "tsm7mb75k"},{"type": "Feature", "geometry": {"type": "Point", "coordinates": [75.141318, 24.4733642]}, "properties": {"highway": "street_lamp", "lamp_type": "electric"}, "geohash": "tsm7jzhpx"},{"type": "Feature", "geometry": {"type": "Point", "coordinates": [75.1403631, 24.4733364]}, "properties": {"highway": "street_lamp", "lamp_type": "electric"}, "geohash": "tsm7jz5x9"},{"type": "Feature", "geometry": {"type": "Point", "coordinates": [75.1408215, 24.4733517]}, "properties": {"highway": "street_lamp", "lamp_type": "solar_lamp"}, "geohash": "tsm7jz5zs"},{"type": "Feature", "geometry": {"type": "Point", "coordinates": [79.4129968, 21.2605469]}, "properties": {"highway": "street_lamp", "lamp_type": "electric", "support": "tree"}, "geohash": "tgb2zn6g8"},{"type": "Feature", "geometry": {"type": "Point", "coordinates": [75.7567818, 22.6818995]}, "properties": {"direction": "76", "highway": "street_lamp", "lamp_mount": "straight", "lamp_type": "led", "support": "pole"}, "geohash": "tsjc5ch7s"},{"type": "Feature", "geometry": {"type": "Point", "coordinates": [75.7568331, 22.6819021]}, "properties": {"direction": "257", "highway": "street_lamp", "lamp_mount": "straight", "lamp_type": "led", "support": "pole"}, "geohash": "tsjc5ch7w"},{"type": "Feature", "geometry": {"type": "Point", "coordinates": [75.7568585, 22.6817267]}, "properties": {"direction": "257", "highway": "street_lamp", "lamp_mount": "straight", "lamp_type": "led", "support": "pole"}, "geohash": "tsjc5ch6w"},{"type": "Feature", "geometry": {"type": "Point", "coordinates": [75.7568239, 22.681686]}, "properties": {"direction": "80", "highway": "street_lamp", "lamp_mount": "straight", "lamp_type": "led", "support": "pole"}, "geohash": "tsjc5ch6m"},{"type": "Feature", "geometry": {"type": "Point", "coordinates": [75.7568791, 22.6816009]}, "properties": {"direction": "261", "highway": "street_lamp", "lamp_mount": "straight", "lamp_type": "led", "support": "pole"}, "geohash": "tsjc5ch3z"},{"type": "Feature", "geometry": {"type": "Point", "coordinates": [75.7568526, 22.6815168]}, "properties": {"direction": "80", "highway": "street_lamp", "lamp_mount": "straight", "lamp_type": "led", "support": "pole"}, "geohash": "tsjc5ch3q"},{"type": "Feature", "geometry": {"type": "Point", "coordinates": [75.7569073, 22.6814285]}, "properties": {"direction": "258", "highway": "street_lamp", "lamp_mount": "straight", "lamp_type": "led", "support": "pole"}, "geohash": "tsjc5ch2z"},{"type": "Feature", "geometry": {"type": "Point", "coordinates": [75.7568816, 22.6813599]}, "properties": {"direction": "81", "highway": "street_lamp", "lamp_mount": "straight", "lamp_type": "led", "support": "pole"}, "geohash": "tsjc5ch2r"},{"type": "Feature", "geometry": {"type": "Point", "coordinates": [75.7569373, 22.6812598]}, "properties": {"direction": "260", "highway": "street_lamp", "lamp_mount": "straight", "lamp_type": "led", "support": "pole"}, "geohash": "tsjc5buxb"},{"type": "Feature", "geometry": {"type": "Point", "coordinates": [75.7569101, 22.6811902]}, "properties": {"direction": "82", "highway": "street_lamp", "lamp_mount": "straight", "lamp_type": "led", "support": "pole"}, "geohash": "tsjc5burx"},{"type": "Feature", "geometry": {"type": "Point", "coordinates": [75.7569582, 22.6811158]}, "properties": {"direction": "259", "highway": "street_lamp", "lamp_mount": "straight", "lamp_type": "led", "support": "pole"}, "geohash": "tsjc5bux1"},{"type": "Feature", "geometry": {"type": "Point", "coordinates": [75.7570501, 22.6808261]}, "properties": {"direction": "39", "highway": "street_lamp", "lamp_mount": "bent_mast", "lamp_type": "led", "support": "pole"}, "geohash": "tsjc5but7"},{"type": "Feature", "geometry": {"type": "Point", "coordinates": [75.7569574, 22.6807154]}, "properties": {"direction": "45", "highway": "street_lamp", "lamp_mount": "pole", "lamp_type": "led", "support": "pole"}, "geohash": "tsjc5bus9"},{"type": "Feature", "geometry": {"type": "Point", "coordinates": [81.8693186, 25.4893977]}, "properties": {"highway": "street_lamp"}, "geohash": "tud1nbpqt"},{"type": "Feature", "geometry": {"type": "Point", "coordinates": [81.8628255, 25.4801637]}, "properties": {"highway": "street_lamp"}, "geohash": "tud0yyd8w"},{"type": "Feature", "geometry": {"type": "Point", "coordinates": [81.9144319, 25.4274476]}, "properties": {"highway": "street_lamp", "survey:date": "2025-05-20"}, "geohash": "tud28hbm8"},{"type": "Feature", "geometry": {"type": "Point", "coordinates": [78.4375773, 22.4762805]}, "properties": {"highway": "street_lamp", "lamp_mount": "cluster", "lamp_type": "metal-halogenide", "support": "pole"}, "geohash": "tezzbgstb"},{"type": "Feature", "geometry": {"type": "Point", "coordinates": [78.4375605, 22.4776627]}, "properties": {"highway": "street_lamp", "lamp_mount": "cluster", "lamp_type": "metal-halogenide", "support": "pole"}, "geohash": "tezzbgumz"},{"type": "Feature", "geometry": {"type": "Point", "coordinates": [78.3548315, 22.7573352]}, "properties": {"highway": "street_lamp", "lamp_mount": "cluster", "lamp_type": "metal-halogenide", "support": "pole"}, "geohash": "tsp9rnb5p"},{"type": "Feature", "geometry": {"type": "Point", "coordinates": [80.9385201, 25.2142247]}, "properties": {"highway": "street_lamp", "lamp_mount": "pole", "lamp_type": "street_lamp"}, "geohash": "tu3x3y1es"},{"type": "Feature", "geometry": {"type": "Point", "coordinates": [80.9582479, 25.2114342]}, "properties": {"highway": "street_lamp", "lamp_type": "street_lamp", "support": "pole"}, "geohash": "tu3x6jxgp"},{"type": "Feature", "geometry": {"type": "Point", "coordinates": [78.359391, 22.7541106]}, "properties": {"highway": "street_lamp", "lamp_mount": "cluster", "lamp_type": "metal-halogenide", "support": "pole"}, "geohash": "tsp9rn786"},{"type": "Feature", "geometry": {"type": "Point", "coordinates": [81.6189483, 21.2688913]}, "properties": {"highway": "street_lamp"}, "geohash": "tgf0crch7"},{"type": "Feature", "geometry": {"type": "Point", "coordinates": [81.6188966, 21.2691979]}, "properties": {"highway": "street_lamp"}, "geohash": "tgf0crcn4"}]}