{"type":"FeatureCollection","features":[{"type": "Feature", "geometry": {"type": "Point", "coordinates": [78.0190245, 30.3462877]}, "properties": {"highway": "street_lamp"}, "geohash": "ttrkxk7ez"},{"type": "Feature", "geometry": {"type": "Point", "coordinates": [78.0172445, 30.3467053]}, "properties": {"highway": "street_lamp"}, "geohash": "ttrkxk6qm"},{"type": "Feature", "geometry": {"type": "Point", "coordinates": [77.995524, 30.3384762]}, "properties": {"highway": "street_lamp"}, "geohash": "ttrkwffw7"},{"type": "Feature", "geometry": {"type": "Point", "coordinates": [77.9959848, 30.3385035]}, "properties": {"highway": "street_lamp"}, "geohash": "ttrkwffyw"},{"type": "Feature", "geometry": {"type": "Point", "coordinates": [77.9964291, 30.3385299]}, "properties": {"highway": "street_lamp"}, "geohash": "ttrkwfgq8"},{"type": "Feature", "geometry": {"type": "Point", "coordinates": [77.996926, 30.3385598]}, "properties": {"highway": "street_lamp"}, "geohash": "ttrkwfgwu"},{"type": "Feature", "geometry": {"type": "Point", "coordinates": [77.9984736, 30.3386543]}, "properties": {"highway": "street_lamp"}, "geohash": "ttrkwfuz2"},{"type": "Feature", "geometry": {"type": "Point", "coordinates": [77.994993, 30.3386572]}, "properties": {"highway": "street_lamp"}, "geohash": "ttrkwffpr"},{"type": "Feature", "geometry": {"type": "Point", "coordinates": [77.9988617, 30.3386695]}, "properties": {"highway": "street_lamp"}, "geohash": "ttrkwfvp9"},{"type": "Feature", "geometry": {"type": "Point", "coordinates": [77.9996905, 30.338719]}, "properties": {"highway": "street_lamp"}, "geohash": "ttrkwfvxu"},{"type": "Feature", "geometry": {"type": "Point", "coordinates": [78.0009023, 30.3387827]}, "properties": {"highway": "street_lamp"}, "geohash": "ttrkwgn80"},{"type": "Feature", "geometry": {"type": "Point", "coordinates": [77.9949689, 30.3389167]}, "properties": {"highway": "street_lamp"}, "geohash": "ttrkwg40y"},{"type": "Feature", "geometry": {"type": "Point", "coordinates": [77.994949, 30.3391501]}, "properties": {"highway": "street_lamp"}, "geohash": "ttrkwg44q"},{"type": "Feature", "geometry": {"type": "Point", "coordinates": [77.9949288, 30.3393883]}, "properties": {"highway": "street_lamp"}, "geohash": "ttrkwg45t"},{"type": "Feature", "geometry": {"type": "Point", "coordinates": [77.9949121, 30.3395834]}, "properties": {"highway": "street_lamp"}, "geohash": "ttrkwg4hv"},{"type": "Feature", "geometry": {"type": "Point", "coordinates": [77.9948907, 30.3398359]}, "properties": {"highway": "street_lamp"}, "geohash": "ttrkwg4nk"},{"type": "Feature", "geometry": {"type": "Point", "coordinates": [77.9948664, 30.3401211]}, "properties": {"highway": "street_lamp"}, "geohash": "ttrkwg60h"},{"type": "Feature", "geometry": {"type": "Point", "coordinates": [77.9947862, 30.3410213]}, "properties": {"highway": "street_lamp"}, "geohash": "ttrkwg6j6"},{"type": "Feature", "geometry": {"type": "Point", "coordinates": [77.9947644, 30.3412887]}, "properties": {"highway": "street_lamp"}, "geohash": "ttrkwg6nc"},{"type": "Feature", "geometry": {"type": "Point", "coordinates": [77.9947426, 30.3415559]}, "properties": {"highway": "street_lamp"}, "geohash": "ttrkwgd03"},{"type": "Feature", "geometry": {"type": "Point", "coordinates": [77.9947259, 30.3417614]}, "properties": {"highway": "street_lamp"}, "geohash": "ttrkwgd18"},{"type": "Feature", "geometry": {"type": "Point", "coordinates": [77.9947077, 30.3419845]}, "properties": {"highway": "street_lamp"}, "geohash": "ttrkwgd4b"},{"type": "Feature", "geometry": {"type": "Point", "coordinates": [77.994691, 30.3421894]}, "properties": {"highway": "street_lamp"}, "geohash": "ttrkwgdh0"},{"type": "Feature", "geometry": {"type": "Point", "coordinates": [77.9946729, 30.3424937]}, "properties": {"highway": "street_lamp"}, "geohash": "ttrkwg9vz"},{"type": "Feature", "geometry": {"type": "Point", "coordinates": [78.0021921, 30.342667]}, "properties": {"highway": "street_lamp"}, "geohash": "ttrkwgxqy"},{"type": "Feature", "geometry": {"type": "Point", "coordinates": [77.9946555, 30.3428015]}, "properties": {"highway": "street_lamp"}, "geohash": "ttrkwg9zx"},{"type": "Feature", "geometry": {"type": "Point", "coordinates": [77.9946408, 30.3430623]}, "properties": {"highway": "street_lamp"}, "geohash": "ttrkwgccn"},{"type": "Feature", "geometry": {"type": "Point", "coordinates": [77.9946242, 30.3433571]}, "properties": {"highway": "street_lamp"}, "geohash": "ttrkwgcfy"},{"type": "Feature", "geometry": {"type": "Point", "coordinates": [77.9946118, 30.3435772]}, "properties": {"highway": "street_lamp"}, "geohash": "ttrkwgcun"},{"type": "Feature", "geometry": {"type": "Point", "coordinates": [77.9946005, 30.3437763]}, "properties": {"highway": "street_lamp"}, "geohash": "ttrkwgcvm"},{"type": "Feature", "geometry": {"type": "Point", "coordinates": [77.9945878, 30.3440009]}, "properties": {"highway": "street_lamp"}, "geohash": "ttrkwgcyt"},{"type": "Feature", "geometry": {"type": "Point", "coordinates": [77.994574, 30.3442456]}, "properties": {"highway": "street_lamp"}, "geohash": "ttrkwu1bj"},{"type": "Feature", "geometry": {"type": "Point", "coordinates": [77.994559, 30.3445112]}, "properties": {"highway": "street_lamp"}, "geohash": "ttrkwu1cs"},{"type": "Feature", "geometry": {"type": "Point", "coordinates": [77.9945408, 30.3448348]}, "properties": {"highway": "street_lamp"}, "geohash": "ttrkwu1gk"},{"type": "Feature", "geometry": {"type": "Point", "coordinates": [77.9945255, 30.3451047]}, "properties": {"highway": "street_lamp"}, "geohash": "ttrkwu1vh"},{"type": "Feature", "geometry": {"type": "Point", "coordinates": [77.9945094, 30.3453906]}, "properties": {"highway": "street_lamp"}, "geohash": "ttrkwu1ye"},{"type": "Feature", "geometry": {"type": "Point", "coordinates": [77.9950656, 30.3456211]}, "properties": {"highway": "street_lamp"}, "geohash": "ttrkwu620"},{"type": "Feature", "geometry": {"type": "Point", "coordinates": [77.9955537, 30.3456398]}, "properties": {"highway": "street_lamp"}, "geohash": "ttrkwu68h"},{"type": "Feature", "geometry": {"type": "Point", "coordinates": [77.996126, 30.3456792]}, "properties": {"highway": "street_lamp"}, "geohash": "ttrkwu703"},{"type": "Feature", "geometry": {"type": "Point", "coordinates": [77.9971769, 30.3457064]}, "properties": {"highway": "street_lamp"}, "geohash": "ttrkwu7b9"},{"type": "Feature", "geometry": {"type": "Point", "coordinates": [77.9976987, 30.3457263]}, "properties": {"highway": "street_lamp"}, "geohash": "ttrkwuk0w"},{"type": "Feature", "geometry": {"type": "Point", "coordinates": [77.9982948, 30.3457628]}, "properties": {"highway": "street_lamp"}, "geohash": "ttrkwuk8g"},{"type": "Feature", "geometry": {"type": "Point", "coordinates": [77.9992991, 30.3458007]}, "properties": {"highway": "street_lamp"}, "geohash": "ttrkwum35"},{"type": "Feature", "geometry": {"type": "Point", "coordinates": [77.9997704, 30.3458194]}, "properties": {"highway": "street_lamp"}, "geohash": "ttrkwum9n"},{"type": "Feature", "geometry": {"type": "Point", "coordinates": [78.0024719, 30.3459853]}, "properties": {"highway": "street_lamp"}, "geohash": "ttrkwurdj"},{"type": "Feature", "geometry": {"type": "Point", "coordinates": [78.0031162, 30.3459998]}, "properties": {"highway": "street_lamp"}, "geohash": "ttrkxh24k"},{"type": "Feature", "geometry": {"type": "Point", "coordinates": [79.6480438, 29.4723178]}, "properties": {"highway": "street_lamp"}, "geohash": "tv0xsmmbt"},{"type": "Feature", "geometry": {"type": "Point", "coordinates": [79.648462, 29.470524]}, "properties": {"highway": "street_lamp", "lamp_type": "solar_lamp"}, "geohash": "tv0xskynp"},{"type": "Feature", "geometry": {"type": "Point", "coordinates": [77.9006617, 29.8647646]}, "properties": {"highway": "street_lamp"}, "geohash": "ttr3ustwb"},{"type": "Feature", "geometry": {"type": "Point", "coordinates": [77.9001922, 29.8644672]}, "properties": {"highway": "street_lamp"}, "geohash": "ttr3ustjn"},{"type": "Feature", "geometry": {"type": "Point", "coordinates": [77.9004418, 29.8646263]}, "properties": {"highway": "street_lamp"}, "geohash": "ttr3ustq5"},{"type": "Feature", "geometry": {"type": "Point", "coordinates": [77.9000161, 29.8643506]}, "properties": {"highway": "street_lamp"}, "geohash": "ttr3usth3"},{"type": "Feature", "geometry": {"type": "Point", "coordinates": [77.9001897, 29.8662745]}, "properties": {"highway": "street_lamp", "lamp_mount": "bent_mast", "lamp_type": "electric", "ref": "0060"}, "geohash": "ttr3usvpt"},{"type": "Feature", "geometry": {"type": "Point", "coordinates": [77.9001205, 29.867296]}, "properties": {"highway": "street_lamp", "lamp_mount": "bent_mast", "lamp_type": "electric", "ref": "0064"}, "geohash": "ttr3utjjs"},{"type": "Feature", "geometry": {"type": "Point", "coordinates": [77.8992503, 29.8682246]}, "properties": {"highway": "street_lamp", "lamp_mount": "bent_mast", "lamp_type": "electric"}, "geohash": "ttr3utke0"},{"type": "Feature", "geometry": {"type": "Point", "coordinates": [77.9006962, 29.8677474]}, "properties": {"highway": "street_lamp", "lamp_mount": "straight_mast"}, "geohash": "ttr3utm81"},{"type": "Feature", "geometry": {"type": "Point", "coordinates": [77.9005216, 29.86777]}, "properties": {"highway": "street_lamp", "lamp_mount": "straight_mast"}, "geohash": "ttr3utm2m"},{"type": "Feature", "geometry": {"type": "Point", "coordinates": [77.9006547, 29.8676624]}, "properties": {"highway": "street_lamp", "lamp_mount": "straight_mast"}, "geohash": "ttr3utjx8"},{"type": "Feature", "geometry": {"type": "Point", "coordinates": [77.9004828, 29.8654489]}, "properties": {"highway": "street_lamp", "lamp_mount": "bent_mast", "lamp_type": "electric"}, "geohash": "ttr3usv6u"},{"type": "Feature", "geometry": {"type": "Point", "coordinates": [77.9005018, 29.8676408]}, "properties": {"highway": "street_lamp", "lamp_mount": "straight_mast"}, "geohash": "ttr3utjrt"},{"type": "Feature", "geometry": {"type": "Point", "coordinates": [77.9002585, 29.8660751]}, "properties": {"highway": "street_lamp", "lamp_mount": "bent_mast", "lamp_type": "electric", "ref": "0059"}, "geohash": "ttr3usvnr"},{"type": "Feature", "geometry": {"type": "Point", "coordinates": [77.9001684, 29.8671258]}, "properties": {"highway": "street_lamp", "lamp_mount": "bent_mast", "lamp_type": "electric"}, "geohash": "ttr3utjht"},{"type": "Feature", "geometry": {"type": "Point", "coordinates": [77.9006148, 29.8678755]}, "properties": {"highway": "street_lamp", "lamp_mount": "straight_mast"}, "geohash": "ttr3utm2z"},{"type": "Feature", "geometry": {"type": "Point", "coordinates": [77.9003533, 29.8657036]}, "properties": {"highway": "street_lamp", "lamp_mount": "bent_mast", "lamp_type": "electric", "ref": "0057"}, "geohash": "ttr3usvk3"},{"type": "Feature", "geometry": {"type": "Point", "coordinates": [77.9003087, 29.8658834]}, "properties": {"highway": "street_lamp", "lamp_mount": "bent_mast", "lamp_type": "electric", "ref": "0058"}, "geohash": "ttr3usvm2"},{"type": "Feature", "geometry": {"type": "Point", "coordinates": [77.9008409, 29.8678856]}, "properties": {"highway": "street_lamp", "lamp_mount": "straight_mast"}, "geohash": "ttr3utm9j"},{"type": "Feature", "geometry": {"type": "Point", "coordinates": [77.9006939, 29.8678455]}, "properties": {"highway": "street_lamp", "lamp_mount": "straight_mast"}, "geohash": "ttr3utm8c"},{"type": "Feature", "geometry": {"type": "Point", "coordinates": [77.8990503, 29.8684424]}, "properties": {"highway": "street_lamp", "lamp_mount": "straight_mast"}, "geohash": "ttr3utkk7"},{"type": "Feature", "geometry": {"type": "Point", "coordinates": [77.9005875, 29.8676588]}, "properties": {"highway": "street_lamp", "lamp_mount": "straight_mast"}, "geohash": "ttr3utjrx"},{"type": "Feature", "geometry": {"type": "Point", "coordinates": [77.901017, 29.8678851]}, "properties": {"highway": "street_lamp", "lamp_mount": "straight_mast"}, "geohash": "ttr3utmc1"},{"type": "Feature", "geometry": {"type": "Point", "coordinates": [77.9011001, 29.8678847]}, "properties": {"highway": "street_lamp", "lamp_mount": "straight_mast"}, "geohash": "ttr3utmc5"},{"type": "Feature", "geometry": {"type": "Point", "coordinates": [77.9009324, 29.867886]}, "properties": {"highway": "street_lamp", "lamp_mount": "straight_mast"}, "geohash": "ttr3utm9p"},{"type": "Feature", "geometry": {"type": "Point", "coordinates": [77.8961157, 29.8682878]}, "properties": {"highway": "street_lamp", "lamp_mount": "straight_mast"}, "geohash": "ttr3ut65r"},{"type": "Feature", "geometry": {"type": "Point", "coordinates": [77.900549, 29.8678523]}, "properties": {"highway": "street_lamp", "lamp_mount": "straight_mast"}, "geohash": "ttr3utm2y"},{"type": "Feature", "geometry": {"type": "Point", "coordinates": [77.897543, 29.868618]}, "properties": {"highway": "street_lamp", "lamp_mount": "bent_mast", "lamp_type": "electric"}, "geohash": "ttr3ut7m2"},{"type": "Feature", "geometry": {"type": "Point", "coordinates": [77.898432, 29.8631189]}, "properties": {"highway": "street_lamp"}, "geohash": "ttr3us7vm"},{"type": "Feature", "geometry": {"type": "Point", "coordinates": [77.8979458, 29.8632705]}, "properties": {"highway": "street_lamp"}, "geohash": "ttr3us7w1"},{"type": "Feature", "geometry": {"type": "Point", "coordinates": [77.8980721, 29.8630154]}, "properties": {"highway": "street_lamp", "lamp_mount": "straight_mast", "support": "pole"}, "geohash": "ttr3us7ss"},{"type": "Feature", "geometry": {"type": "Point", "coordinates": [77.8983353, 29.8630102]}, "properties": {"highway": "street_lamp", "lamp_mount": "straight_mast", "support": "pole"}, "geohash": "ttr3us7ud"},{"type": "Feature", "geometry": {"type": "Point", "coordinates": [77.9000239, 29.8630807]}, "properties": {"highway": "street_lamp"}, "geohash": "ttr3usmj4"},{"type": "Feature", "geometry": {"type": "Point", "coordinates": [77.8996904, 29.8628645]}, "properties": {"highway": "street_lamp", "lamp_mount": "bent_mast"}, "geohash": "ttr3uskgf"},{"type": "Feature", "geometry": {"type": "Point", "coordinates": [77.8979019, 29.862973]}, "properties": {"highway": "street_lamp"}, "geohash": "ttr3us7s2"},{"type": "Feature", "geometry": {"type": "Point", "coordinates": [77.9000036, 29.8629827]}, "properties": {"highway": "street_lamp"}, "geohash": "ttr3usmh3"},{"type": "Feature", "geometry": {"type": "Point", "coordinates": [77.8998597, 29.8628671]}, "properties": {"highway": "street_lamp", "lamp_mount": "bent_mast"}, "geohash": "ttr3uskgy"},{"type": "Feature", "geometry": {"type": "Point", "coordinates": [77.8984035, 29.8631169]}, "properties": {"highway": "street_lamp"}, "geohash": "ttr3us7vk"},{"type": "Feature", "geometry": {"type": "Point", "coordinates": [77.8979138, 29.8630301]}, "properties": {"highway": "street_lamp"}, "geohash": "ttr3us7sb"},{"type": "Feature", "geometry": {"type": "Point", "coordinates": [77.8982471, 29.8633876]}, "properties": {"highway": "street_lamp"}, "geohash": "ttr3us7yb"},{"type": "Feature", "geometry": {"type": "Point", "coordinates": [77.8979351, 29.8630837]}, "properties": {"highway": "street_lamp", "lamp_mount": "bent_mast", "support": "pole"}, "geohash": "ttr3us7t1"},{"type": "Feature", "geometry": {"type": "Point", "coordinates": [77.8976706, 29.8629712]}, "properties": {"highway": "street_lamp"}, "geohash": "ttr3us7k7"},{"type": "Feature", "geometry": {"type": "Point", "coordinates": [77.8980315, 29.8633922]}, "properties": {"highway": "street_lamp"}, "geohash": "ttr3us7wg"},{"type": "Feature", "geometry": {"type": "Point", "coordinates": [77.8978718, 29.8626377]}, "properties": {"highway": "street_lamp"}, "geohash": "ttr3us76r"},{"type": "Feature", "geometry": {"type": "Point", "coordinates": [77.8984119, 29.8630041]}, "properties": {"highway": "street_lamp"}, "geohash": "ttr3us7us"},{"type": "Feature", "geometry": {"type": "Point", "coordinates": [77.8981629, 29.8630246]}, "properties": {"highway": "street_lamp", "lamp_mount": "straight_mast", "support": "pole"}, "geohash": "ttr3us7sw"},{"type": "Feature", "geometry": {"type": "Point", "coordinates": [77.8984226, 29.863311]}, "properties": {"highway": "street_lamp"}, "geohash": "ttr3us7yk"},{"type": "Feature", "geometry": {"type": "Point", "coordinates": [77.8904616, 29.8683529]}, "properties": {"highway": "street_lamp", "lamp_mount": "straight_mast"}, "geohash": "ttr3umq5g"},{"type": "Feature", "geometry": {"type": "Point", "coordinates": [77.8905627, 29.8684045]}, "properties": {"highway": "street_lamp", "lamp_mount": "straight_mast"}, "geohash": "ttr3umqhj"},{"type": "Feature", "geometry": {"type": "Point", "coordinates": [77.8903755, 29.8684233]}, "properties": {"highway": "street_lamp", "lamp_mount": "straight_mast"}, "geohash": "ttr3umqh1"},{"type": "Feature", "geometry": {"type": "Point", "coordinates": [77.8904712, 29.8684156]}, "properties": {"highway": "street_lamp", "lamp_mount": "straight_mast"}, "geohash": "ttr3umqh5"},{"type": "Feature", "geometry": {"type": "Point", "coordinates": [77.890647, 29.8684026]}, "properties": {"highway": "street_lamp", "lamp_mount": "straight_mast"}, "geohash": "ttr3umqhp"},{"type": "Feature", "geometry": {"type": "Point", "coordinates": [77.8905627, 29.8683481]}, "properties": {"highway": "street_lamp", "lamp_mount": "straight_mast"}, "geohash": "ttr3umq5t"},{"type": "Feature", "geometry": {"type": "Point", "coordinates": [77.8992705, 29.8644697]}, "properties": {"highway": "street_lamp", "lamp_mount": "straight_mast", "lamp_type": "electric"}, "geohash": "ttr3usst0"},{"type": "Feature", "geometry": {"type": "Point", "coordinates": [77.8992295, 29.8645143]}, "properties": {"highway": "street_lamp", "lamp_mount": "straight_mast", "lamp_type": "electric"}, "geohash": "ttr3ussmr"},{"type": "Feature", "geometry": {"type": "Point", "coordinates": [77.8992225, 29.8644345]}, "properties": {"highway": "street_lamp", "lamp_mount": "straight_mast", "lamp_type": "electric"}, "geohash": "ttr3usskz"},{"type": "Feature", "geometry": {"type": "Point", "coordinates": [77.8991781, 29.8644752]}, "properties": {"highway": "street_lamp", "lamp_mount": "straight_mast", "lamp_type": "electric"}, "geohash": "ttr3ussmn"},{"type": "Feature", "geometry": {"type": "Point", "coordinates": [77.8960237, 29.8660994]}, "properties": {"highway": "street_lamp", "lamp_mount": "straight_mast", "lamp_type": "led", "ref": "0358"}, "geohash": "ttr3usfns"},{"type": "Feature", "geometry": {"type": "Point", "coordinates": [77.8961277, 29.8660995]}, "properties": {"highway": "street_lamp", "lamp_mount": "straight_mast", "lamp_type": "led", "ref": "0357"}, "geohash": "ttr3usfnx"},{"type": "Feature", "geometry": {"type": "Point", "coordinates": [77.8965515, 29.8660469]}, "properties": {"highway": "street_lamp", "lamp_mount": "straight_mast", "lamp_type": "led", "ref": "0355"}, "geohash": "ttr3usfw3"},{"type": "Feature", "geometry": {"type": "Point", "coordinates": [77.8963596, 29.8660681]}, "properties": {"highway": "street_lamp", "lamp_mount": "straight_mast", "lamp_type": "led", "ref": "0356"}, "geohash": "ttr3usfqk"},{"type": "Feature", "geometry": {"type": "Point", "coordinates": [77.8958218, 29.8662741]}, "properties": {"highway": "street_lamp", "lamp_mount": "high_mast", "lamp_type": "floodlight"}, "geohash": "ttr3usfp8"},{"type": "Feature", "geometry": {"type": "Point", "coordinates": [77.8967913, 29.8660463]}, "properties": {"highway": "street_lamp", "lamp_mount": "straight_mast", "lamp_type": "led", "ref": "0353"}, "geohash": "ttr3usfwq"},{"type": "Feature", "geometry": {"type": "Point", "coordinates": [77.8960654, 29.8662746]}, "properties": {"highway": "street_lamp", "lamp_mount": "high_mast", "lamp_type": "floodlight"}, "geohash": "ttr3usfpt"},{"type": "Feature", "geometry": {"type": "Point", "coordinates": [77.895804, 29.8665003]}, "properties": {"highway": "street_lamp", "lamp_mount": "high_mast", "lamp_type": "floodlight"}, "geohash": "ttr3ut1bz"},{"type": "Feature", "geometry": {"type": "Point", "coordinates": [77.8960418, 29.8665075]}, "properties": {"highway": "street_lamp", "lamp_mount": "high_mast", "lamp_type": "floodlight"}, "geohash": "ttr3ut41j"},{"type": "Feature", "geometry": {"type": "Point", "coordinates": [77.8966624, 29.86606]}, "properties": {"highway": "street_lamp", "lamp_mount": "straight_mast", "lamp_type": "led", "ref": "0354"}, "geohash": "ttr3usfw7"},{"type": "Feature", "geometry": {"type": "Point", "coordinates": [77.8998485, 29.8662696]}, "properties": {"highway": "street_lamp", "lamp_mount": "bent_mast", "lamp_type": "led"}, "geohash": "ttr3usuzw"},{"type": "Feature", "geometry": {"type": "Point", "coordinates": [77.8991711, 29.8661298]}, "properties": {"highway": "street_lamp", "lamp_mount": "bent_mast", "lamp_type": "led", "ref": "0337"}, "geohash": "ttr3usuqy"},{"type": "Feature", "geometry": {"type": "Point", "coordinates": [77.8989177, 29.8660844]}, "properties": {"highway": "street_lamp", "lamp_mount": "bent_mast", "lamp_type": "led", "ref": "0338"}, "geohash": "ttr3usuq8"},{"type": "Feature", "geometry": {"type": "Point", "coordinates": [77.899503, 29.8661853]}, "properties": {"highway": "street_lamp", "lamp_mount": "bent_mast", "lamp_type": "led"}, "geohash": "ttr3usuxj"},{"type": "Feature", "geometry": {"type": "Point", "coordinates": [77.8983343, 29.8659747]}, "properties": {"highway": "street_lamp", "lamp_mount": "bent_mast", "lamp_type": "led", "ref": "0340"}, "geohash": "ttr3usgvf"},{"type": "Feature", "geometry": {"type": "Point", "coordinates": [77.8986152, 29.8660357]}, "properties": {"highway": "street_lamp", "lamp_mount": "bent_mast", "lamp_type": "led", "ref": "0339"}, "geohash": "ttr3usun3"},{"type": "Feature", "geometry": {"type": "Point", "coordinates": [77.714458, 29.1514582]}, "properties": {"highway": "street_lamp"}, "geohash": "ttpmb6vgw"},{"type": "Feature", "geometry": {"type": "Point", "coordinates": [77.7385152, 28.9846332]}, "properties": {"highway": "street_lamp", "lamp_mount": "bent_mast", "lamp_type": "solar_lamp", "support": "pole"}, "geohash": "ttpkburrw"},{"type": "Feature", "geometry": {"type": "Point", "coordinates": [77.7317028, 28.9791579]}, "properties": {"highway": "street_lamp", "lamp_mount": "straight_mast", "lamp_type": "floodlight"}, "geohash": "ttpkbg6rz"},{"type": "Feature", "geometry": {"type": "Point", "coordinates": [77.7310964, 28.987321]}, "properties": {"highway": "street_lamp", "lamp_mount": "pole", "lamp_type": "floodlight"}, "geohash": "ttpkbufp3"},{"type": "Feature", "geometry": {"type": "Point", "coordinates": [77.7373662, 28.9691161]}, "properties": {"highway": "street_lamp", "lamp_mount": "pole", "man_made": "utility_pole", "ref": "21"}, "geohash": "ttpkbcwt7"},{"type": "Feature", "geometry": {"type": "Point", "coordinates": [77.7367145, 28.9698085]}, "properties": {"highway": "street_lamp", "lamp_mount": "pole", "man_made": "utility_pole", "ref": "24"}, "geohash": "ttpkbcy1k"},{"type": "Feature", "geometry": {"type": "Point", "coordinates": [77.7371418, 28.969349]}, "properties": {"highway": "street_lamp", "lamp_mount": "pole", "man_made": "utility_pole", "ref": "22"}, "geohash": "ttpkbcwqw"},{"type": "Feature", "geometry": {"type": "Point", "coordinates": [77.7369566, 28.9695664]}, "properties": {"highway": "street_lamp", "lamp_mount": "pole", "man_made": "utility_pole", "ref": "23"}, "geohash": "ttpkbcwrf"},{"type": "Feature", "geometry": {"type": "Point", "coordinates": [77.7375982, 28.9688999]}, "properties": {"highway": "street_lamp", "lamp_mount": "pole", "man_made": "utility_pole", "ref": "20"}, "geohash": "ttpkbcwu1"},{"type": "Feature", "geometry": {"type": "Point", "coordinates": [77.7380429, 28.9684247]}, "properties": {"highway": "street_lamp", "lamp_mount": "pole", "man_made": "utility_pole", "ref": "18"}, "geohash": "ttpkbcx17"},{"type": "Feature", "geometry": {"type": "Point", "coordinates": [77.7378126, 28.9686573]}, "properties": {"highway": "street_lamp", "lamp_mount": "pole", "man_made": "utility_pole", "ref": "19"}, "geohash": "ttpkbcwfw"},{"type": "Feature", "geometry": {"type": "Point", "coordinates": [77.7382244, 28.9682243]}, "properties": {"highway": "street_lamp", "lamp_mount": "pole", "man_made": "utility_pole", "ref": "17"}, "geohash": "ttpkbcx0p"},{"type": "Feature", "geometry": {"type": "Point", "coordinates": [77.727299, 28.9877924]}, "properties": {"highway": "street_lamp", "lamp_mount": "straight_mast", "lamp_type": "led"}, "geohash": "ttpkbtp61"},{"type": "Feature", "geometry": {"type": "Point", "coordinates": [77.7272547, 28.9878185]}, "properties": {"highway": "street_lamp", "lamp_mount": "straight_mast", "lamp_type": "led"}, "geohash": "ttpkbtp62"},{"type": "Feature", "geometry": {"type": "Point", "coordinates": [77.7273532, 28.9877655]}, "properties": {"highway": "street_lamp", "lamp_mount": "straight_mast", "lamp_type": "led"}, "geohash": "ttpkbtp3f"},{"type": "Feature", "geometry": {"type": "Point", "coordinates": [77.7076921, 29.04074]}, "properties": {"highway": "street_lamp", "lamp_type": "electric", "support": "pole"}, "geohash": "ttpm0q9n8"}]}