{
  "type": "FeatureCollection",
  "features": [
    {
      "type": "Feature",
      "geometry": { "type": "Point", "coordinates": [76.3241747, 32.2160191] },
      "properties": { "highway": "street_lamp" },
      "geohash": "ttwr2b9xf"
    },
    {
      "type": "Feature",
      "geometry": { "type": "Point", "coordinates": [76.3278136, 32.2081248] },
      "properties": {
        "highway": "street_lamp",
        "lamp_mount": "wall",
        "lamp_type": "led"
      },
      "geohash": "ttwr0zk1y"
    },
    {
      "type": "Feature",
      "geometry": { "type": "Point", "coordinates": [76.5276215, 31.7082444] },
      "properties": { "highway": "street_lamp" },
      "geohash": "ttwkmkm9y"
    },
    {
      "type": "Feature",
      "geometry": { "type": "Point", "coordinates": [76.52767, 31.7081979] },
      "properties": { "highway": "street_lamp" },
      "geohash": "ttwkmkm9x"
    },
    {
      "type": "Feature",
      "geometry": { "type": "Point", "coordinates": [76.5277269, 31.7081567] },
      "properties": { "highway": "street_lamp" },
      "geohash": "ttwkmkmc3"
    },
    {
      "type": "Feature",
      "geometry": { "type": "Point", "coordinates": [76.5277839, 31.7081113] },
      "properties": { "highway": "street_lamp" },
      "geohash": "ttwkmkmc4"
    },
    {
      "type": "Feature",
      "geometry": { "type": "Point", "coordinates": [76.5278312, 31.7080711] },
      "properties": { "highway": "street_lamp" },
      "geohash": "ttwkmkmbg"
    },
    {
      "type": "Feature",
      "geometry": { "type": "Point", "coordinates": [76.5279342, 31.7079834] },
      "properties": { "highway": "street_lamp" },
      "geohash": "ttwkmkmbq"
    },
    {
      "type": "Feature",
      "geometry": { "type": "Point", "coordinates": [76.5280807, 31.7078491] },
      "properties": { "highway": "street_lamp" },
      "geohash": "ttwkmknp9"
    },
    {
      "type": "Feature",
      "geometry": { "type": "Point", "coordinates": [76.5281425, 31.7077954] },
      "properties": { "highway": "street_lamp" },
      "geohash": "ttwkmknp6"
    },
    {
      "type": "Feature",
      "geometry": { "type": "Point", "coordinates": [76.528196, 31.7077464] },
      "properties": { "highway": "street_lamp" },
      "geohash": "ttwkmknph"
    },
    {
      "type": "Feature",
      "geometry": { "type": "Point", "coordinates": [76.528266, 31.7076845] },
      "properties": { "highway": "street_lamp" },
      "geohash": "ttwkmknnt"
    },
    {
      "type": "Feature",
      "geometry": { "type": "Point", "coordinates": [76.5283154, 31.7076331] },
      "properties": { "highway": "street_lamp", "lamp_type": "electric" },
      "geohash": "ttwkmknnq"
    },
    {
      "type": "Feature",
      "geometry": { "type": "Point", "coordinates": [76.5281092, 31.7072792] },
      "properties": { "highway": "street_lamp", "lamp_type": "floodlight" },
      "geohash": "ttwkmknh6"
    },
    {
      "type": "Feature",
      "geometry": { "type": "Point", "coordinates": [76.5233268, 31.7086608] },
      "properties": { "highway": "street_lamp", "lamp_type": "floodlight" },
      "geohash": "ttwkmk6s6"
    },
    {
      "type": "Feature",
      "geometry": { "type": "Point", "coordinates": [76.5251392, 31.7056744] },
      "properties": { "highway": "street_lamp", "lamp_type": "floodlight" },
      "geohash": "ttwkm7gfu"
    },
    {
      "type": "Feature",
      "geometry": { "type": "Point", "coordinates": [76.4065662, 32.1655666] },
      "properties": { "highway": "street_lamp", "lamp_type": "solar_lamp" },
      "geohash": "ttwqfxtd4"
    },
    {
      "type": "Feature",
      "geometry": { "type": "Point", "coordinates": [76.3267444, 32.2095397] },
      "properties": {
        "highway": "street_lamp",
        "lamp_mount": "bent_mast",
        "lamp_type": "led",
        "power": "pole"
      },
      "geohash": "ttwr0ze6n"
    },
    {
      "type": "Feature",
      "geometry": { "type": "Point", "coordinates": [76.3268016, 32.2054344] },
      "properties": {
        "highway": "street_lamp",
        "lamp_mount": "bent_mast",
        "lamp_type": "led",
        "power": "pole"
      },
      "geohash": "ttwr0yg6r"
    },
    {
      "type": "Feature",
      "geometry": { "type": "Point", "coordinates": [76.3259812, 32.2072954] },
      "properties": {
        "highway": "street_lamp",
        "lamp_mount": "bent_mast",
        "lamp_type": "led",
        "power": "pole"
      },
      "geohash": "ttwr0z4vh"
    },
    {
      "type": "Feature",
      "geometry": { "type": "Point", "coordinates": [76.3263036, 32.2082754] },
      "properties": {
        "highway": "street_lamp",
        "lamp_mount": "bent_mast",
        "lamp_type": "led",
        "power": "pole"
      },
      "geohash": "ttwr0z74g"
    },
    {
      "type": "Feature",
      "geometry": { "type": "Point", "coordinates": [76.3255258, 32.2069564] },
      "properties": {
        "highway": "street_lamp",
        "lamp_mount": "bent_mast",
        "lamp_type": "led",
        "power": "pole"
      },
      "geohash": "ttwr0z4e1"
    },
    {
      "type": "Feature",
      "geometry": { "type": "Point", "coordinates": [76.326217, 32.2061436] },
      "properties": {
        "highway": "street_lamp",
        "lamp_mount": "bent_mast",
        "lamp_type": "led",
        "power": "pole"
      },
      "geohash": "ttwr0ygn3"
    },
    {
      "type": "Feature",
      "geometry": { "type": "Point", "coordinates": [76.3265171, 32.2070071] },
      "properties": {
        "highway": "street_lamp",
        "lamp_mount": "wall",
        "lamp_type": "led"
      },
      "geohash": "ttwr0z572"
    },
    {
      "type": "Feature",
      "geometry": { "type": "Point", "coordinates": [76.3275575, 32.2052836] },
      "properties": {
        "highway": "street_lamp",
        "lamp_mount": "bent_mast",
        "lamp_type": "led",
        "power": "pole"
      },
      "geohash": "ttwr0yu12"
    },
    {
      "type": "Feature",
      "geometry": { "type": "Point", "coordinates": [76.3259067, 32.2081628] },
      "properties": {
        "highway": "street_lamp",
        "lamp_mount": "bent_mast",
        "lamp_type": "led",
        "power": "pole"
      },
      "geohash": "ttwr0z6f4"
    },
    {
      "type": "Feature",
      "geometry": { "type": "Point", "coordinates": [76.3263692, 32.2087776] },
      "properties": {
        "highway": "street_lamp",
        "lamp_mount": "bent_mast",
        "lamp_type": "led",
        "power": "pole"
      },
      "geohash": "ttwr0z7jt"
    },
    {
      "type": "Feature",
      "geometry": { "type": "Point", "coordinates": [76.3263703, 32.2056451] },
      "properties": {
        "highway": "street_lamp",
        "lamp_mount": "bent_mast",
        "lamp_type": "led",
        "power": "pole"
      },
      "geohash": "ttwr0yg5m"
    },
    {
      "type": "Feature",
      "geometry": { "type": "Point", "coordinates": [76.3261893, 32.2076248] },
      "properties": {
        "highway": "street_lamp",
        "lamp_mount": "bent_mast",
        "lamp_type": "led",
        "power": "pole"
      },
      "geohash": "ttwr0z5p1"
    },
    {
      "type": "Feature",
      "geometry": { "type": "Point", "coordinates": [76.3262273, 32.2078486] },
      "properties": {
        "highway": "street_lamp",
        "lamp_mount": "bent_mast",
        "lamp_type": "led",
        "power": "pole"
      },
      "geohash": "ttwr0z706"
    },
    {
      "type": "Feature",
      "geometry": { "type": "Point", "coordinates": [76.3260924, 32.2082283] },
      "properties": {
        "highway": "street_lamp",
        "lamp_mount": "bent_mast",
        "lamp_type": "led",
        "power": "pole"
      },
      "geohash": "ttwr0z6fw"
    },
    {
      "type": "Feature",
      "geometry": { "type": "Point", "coordinates": [76.3259374, 32.206569] },
      "properties": {
        "highway": "street_lamp",
        "lamp_mount": "bent_mast",
        "lamp_type": "led",
        "power": "pole"
      },
      "geohash": "ttwr0z4bg"
    },
    {
      "type": "Feature",
      "geometry": { "type": "Point", "coordinates": [76.3260692, 32.206314] },
      "properties": {
        "highway": "street_lamp",
        "lamp_mount": "bent_mast",
        "lamp_type": "led",
        "power": "pole"
      },
      "geohash": "ttwr0yfzq"
    },
    {
      "type": "Feature",
      "geometry": { "type": "Point", "coordinates": [76.3276491, 32.2083021] },
      "properties": {
        "highway": "street_lamp",
        "lamp_mount": "wall",
        "lamp_type": "led"
      },
      "geohash": "ttwr0zk4g"
    },
    {
      "type": "Feature",
      "geometry": { "type": "Point", "coordinates": [76.327883, 32.2076777] },
      "properties": {
        "highway": "street_lamp",
        "lamp_mount": "bent_mast",
        "lamp_type": "led"
      },
      "geohash": "ttwr0zhr2"
    },
    {
      "type": "Feature",
      "geometry": { "type": "Point", "coordinates": [76.3271993, 32.2082772] },
      "properties": {
        "highway": "street_lamp",
        "lamp_mount": "bent_mast",
        "lamp_type": "led",
        "power": "pole"
      },
      "geohash": "ttwr0z7fb"
    },
    {
      "type": "Feature",
      "geometry": { "type": "Point", "coordinates": [76.3289985, 32.2049292] },
      "properties": {
        "highway": "street_lamp",
        "lamp_mount": "bent_mast",
        "lamp_type": "led",
        "power": "pole"
      },
      "geohash": "ttwr0ytp6"
    },
    {
      "type": "Feature",
      "geometry": { "type": "Point", "coordinates": [76.3276368, 32.2071801] },
      "properties": {
        "highway": "street_lamp",
        "lamp_mount": "bent_mast",
        "lamp_type": "led",
        "power": "pole"
      },
      "geohash": "ttwr0zhh6"
    },
    {
      "type": "Feature",
      "geometry": { "type": "Point", "coordinates": [76.3267678, 32.2081471] },
      "properties": {
        "highway": "street_lamp",
        "lamp_mount": "wall",
        "lamp_type": "led"
      },
      "geohash": "ttwr0z76n"
    },
    {
      "type": "Feature",
      "geometry": { "type": "Point", "coordinates": [76.3280085, 32.2079835] },
      "properties": {
        "highway": "street_lamp",
        "lamp_mount": "wall",
        "lamp_type": "led"
      },
      "geohash": "ttwr0zk35"
    },
    {
      "type": "Feature",
      "geometry": { "type": "Point", "coordinates": [76.3276232, 32.2055665] },
      "properties": {
        "highway": "street_lamp",
        "lamp_mount": "bent_mast",
        "lamp_type": "led",
        "power": "pole"
      },
      "geohash": "ttwr0yu54"
    },
    {
      "type": "Feature",
      "geometry": { "type": "Point", "coordinates": [76.3273277, 32.2066947] },
      "properties": {
        "highway": "street_lamp",
        "lamp_mount": "bent_mast",
        "lamp_type": "led",
        "power": "pole"
      },
      "geohash": "ttwr0z5ce"
    },
    {
      "type": "Feature",
      "geometry": { "type": "Point", "coordinates": [76.3276725, 32.2082913] },
      "properties": {
        "highway": "street_lamp",
        "lamp_mount": "wall",
        "lamp_type": "led"
      },
      "geohash": "ttwr0zk4g"
    },
    {
      "type": "Feature",
      "geometry": { "type": "Point", "coordinates": [76.3273338, 32.2052079] },
      "properties": {
        "highway": "street_lamp",
        "lamp_mount": "bent_mast",
        "lamp_type": "led",
        "power": "pole"
      },
      "geohash": "ttwr0ygbg"
    },
    {
      "type": "Feature",
      "geometry": { "type": "Point", "coordinates": [76.3259657, 32.203087] },
      "properties": {
        "highway": "street_lamp",
        "lamp_mount": "bent_mast",
        "lamp_type": "led"
      },
      "geohash": "ttwr0y6ue"
    },
    {
      "type": "Feature",
      "geometry": { "type": "Point", "coordinates": [76.3259156, 32.2035246] },
      "properties": {
        "highway": "street_lamp",
        "lamp_mount": "bent_mast",
        "lamp_type": "led"
      },
      "geohash": "ttwr0y6z4"
    },
    {
      "type": "Feature",
      "geometry": { "type": "Point", "coordinates": [76.3256816, 32.2038504] },
      "properties": {
        "highway": "street_lamp",
        "lamp_mount": "bent_mast",
        "lamp_type": "led"
      },
      "geohash": "ttwr0yd9j"
    },
    {
      "type": "Feature",
      "geometry": { "type": "Point", "coordinates": [76.3250908, 32.2051423] },
      "properties": {
        "highway": "street_lamp",
        "lamp_mount": "bent_mast",
        "lamp_type": "led"
      },
      "geohash": "ttwr0yf0x"
    },
    {
      "type": "Feature",
      "geometry": { "type": "Point", "coordinates": [76.3260109, 32.2039286] },
      "properties": {
        "highway": "street_lamp",
        "lamp_mount": "bent_mast",
        "lamp_type": "led"
      },
      "geohash": "ttwr0ydck"
    },
    {
      "type": "Feature",
      "geometry": { "type": "Point", "coordinates": [76.3235399, 32.2053104] },
      "properties": {
        "highway": "street_lamp",
        "lamp_mount": "bent_mast",
        "lamp_type": "led",
        "power": "pole"
      },
      "geohash": "ttwr0yc1e"
    },
    {
      "type": "Feature",
      "geometry": { "type": "Point", "coordinates": [76.322587, 32.1955579] },
      "properties": {
        "highway": "street_lamp",
        "lamp_mount": "bent_mast",
        "lamp_type": "led",
        "power": "pole"
      },
      "geohash": "ttwr0v02t"
    },
    {
      "type": "Feature",
      "geometry": { "type": "Point", "coordinates": [76.3220279, 32.1954746] },
      "properties": {
        "highway": "street_lamp",
        "lamp_mount": "bent_mast",
        "lamp_type": "led",
        "power": "pole"
      },
      "geohash": "ttwr0v000"
    },
    {
      "type": "Feature",
      "geometry": { "type": "Point", "coordinates": [76.3222839, 32.1956309] },
      "properties": {
        "highway": "street_lamp",
        "lamp_mount": "bent_mast",
        "lamp_type": "led",
        "power": "pole"
      },
      "geohash": "ttwr0v01n"
    },
    {
      "type": "Feature",
      "geometry": { "type": "Point", "coordinates": [76.3239175, 32.1960562] },
      "properties": {
        "highway": "street_lamp",
        "lamp_mount": "bent_mast",
        "lamp_type": "led",
        "power": "pole"
      },
      "geohash": "ttwr0v17s"
    },
    {
      "type": "Feature",
      "geometry": { "type": "Point", "coordinates": [76.3240481, 32.195851] },
      "properties": {
        "highway": "street_lamp",
        "lamp_mount": "bent_mast",
        "lamp_type": "led",
        "power": "pole"
      },
      "geohash": "ttwr0v16r"
    },
    {
      "type": "Feature",
      "geometry": { "type": "Point", "coordinates": [76.3238229, 32.2084147] },
      "properties": {
        "highway": "street_lamp",
        "lamp_mount": "bent_mast",
        "lamp_type": "led",
        "power": "pole"
      },
      "geohash": "ttwr0z379"
    },
    {
      "type": "Feature",
      "geometry": { "type": "Point", "coordinates": [76.3238232, 32.1955954] },
      "properties": {
        "highway": "street_lamp",
        "lamp_mount": "bent_mast",
        "lamp_type": "led",
        "power": "pole"
      },
      "geohash": "ttwr0v12c"
    },
    {
      "type": "Feature",
      "geometry": { "type": "Point", "coordinates": [77.1230664, 30.4710278] },
      "properties": { "highway": "street_lamp" },
      "geohash": "ttqv6gp69"
    },
    {
      "type": "Feature",
      "geometry": { "type": "Point", "coordinates": [76.3596058, 32.191259] },
      "properties": { "highway": "street_lamp", "lamp_mount": "bent_mast" },
      "geohash": "ttwr1s5re"
    },
    {
      "type": "Feature",
      "geometry": { "type": "Point", "coordinates": [76.35987, 32.1912785] },
      "properties": { "highway": "street_lamp", "lamp_mount": "bent_mast" },
      "geohash": "ttwr1s5xc"
    },
    {
      "type": "Feature",
      "geometry": { "type": "Point", "coordinates": [76.3591704, 32.1913607] },
      "properties": { "highway": "street_lamp", "lamp_mount": "bent_mast" },
      "geohash": "ttwr1s703"
    },
    {
      "type": "Feature",
      "geometry": { "type": "Point", "coordinates": [76.3620509, 32.1906264] },
      "properties": { "highway": "street_lamp", "lamp_mount": "bent_mast" },
      "geohash": "ttwr1sj5u"
    },
    {
      "type": "Feature",
      "geometry": { "type": "Point", "coordinates": [76.3606795, 32.1910298] },
      "properties": { "highway": "street_lamp", "lamp_mount": "bent_mast" },
      "geohash": "ttwr1shnk"
    },
    {
      "type": "Feature",
      "geometry": { "type": "Point", "coordinates": [76.361836, 32.190662] },
      "properties": { "highway": "street_lamp", "lamp_mount": "bent_mast" },
      "geohash": "ttwr1shup"
    },
    {
      "type": "Feature",
      "geometry": { "type": "Point", "coordinates": [76.3615647, 32.1906984] },
      "properties": { "highway": "street_lamp", "lamp_mount": "bent_mast" },
      "geohash": "ttwr1shu3"
    },
    {
      "type": "Feature",
      "geometry": { "type": "Point", "coordinates": [76.3633123, 32.1926548] },
      "properties": { "highway": "street_lamp", "lamp_mount": "bent_mast" },
      "geohash": "ttwr1sqpf"
    },
    {
      "type": "Feature",
      "geometry": { "type": "Point", "coordinates": [76.3629847, 32.1917743] },
      "properties": { "highway": "street_lamp", "lamp_mount": "bent_mast" },
      "geohash": "ttwr1smfd"
    },
    {
      "type": "Feature",
      "geometry": { "type": "Point", "coordinates": [76.3577645, 32.1908452] },
      "properties": { "highway": "street_lamp", "lamp_mount": "bent_mast" },
      "geohash": "ttwr1s4j2"
    },
    {
      "type": "Feature",
      "geometry": { "type": "Point", "coordinates": [76.3585204, 32.1914908] },
      "properties": { "highway": "street_lamp", "lamp_mount": "bent_mast" },
      "geohash": "ttwr1s694"
    },
    {
      "type": "Feature",
      "geometry": { "type": "Point", "coordinates": [76.3628185, 32.1913809] },
      "properties": { "highway": "street_lamp", "lamp_mount": "bent_mast" },
      "geohash": "ttwr1sm8q"
    },
    {
      "type": "Feature",
      "geometry": { "type": "Point", "coordinates": [76.3634934, 32.1932397] },
      "properties": { "highway": "street_lamp", "lamp_mount": "bent_mast" },
      "geohash": "ttwr1sw5n"
    },
    {
      "type": "Feature",
      "geometry": { "type": "Point", "coordinates": [76.3575717, 32.190776] },
      "properties": { "highway": "street_lamp", "lamp_mount": "bent_mast" },
      "geohash": "ttwr1s1uu"
    },
    {
      "type": "Feature",
      "geometry": { "type": "Point", "coordinates": [76.3608326, 32.1908496] },
      "properties": { "highway": "street_lamp", "lamp_mount": "bent_mast" },
      "geohash": "ttwr1shm2"
    },
    {
      "type": "Feature",
      "geometry": { "type": "Point", "coordinates": [76.3611091, 32.1907821] },
      "properties": { "highway": "street_lamp", "lamp_mount": "bent_mast" },
      "geohash": "ttwr1shky"
    },
    {
      "type": "Feature",
      "geometry": { "type": "Point", "coordinates": [76.358738, 32.1916813] },
      "properties": { "highway": "street_lamp", "lamp_mount": "bent_mast" },
      "geohash": "ttwr1s6dp"
    },
    {
      "type": "Feature",
      "geometry": { "type": "Point", "coordinates": [76.3601752, 32.1911476] },
      "properties": { "highway": "street_lamp", "lamp_mount": "bent_mast" },
      "geohash": "ttwr1s5z1"
    },
    {
      "type": "Feature",
      "geometry": { "type": "Point", "coordinates": [76.3582545, 32.1911549] },
      "properties": { "highway": "street_lamp", "lamp_mount": "bent_mast" },
      "geohash": "ttwr1s4rh"
    },
    {
      "type": "Feature",
      "geometry": { "type": "Point", "coordinates": [76.3573916, 32.1907477] },
      "properties": { "highway": "street_lamp", "lamp_mount": "bent_mast" },
      "geohash": "ttwr1s1u8"
    },
    {
      "type": "Feature",
      "geometry": { "type": "Point", "coordinates": [76.3629115, 32.1915559] },
      "properties": { "highway": "street_lamp", "lamp_mount": "bent_mast" },
      "geohash": "ttwr1smc2"
    },
    {
      "type": "Feature",
      "geometry": { "type": "Point", "coordinates": [76.3593953, 32.1913065] },
      "properties": { "highway": "street_lamp", "lamp_mount": "bent_mast" },
      "geohash": "ttwr1s5py"
    }
  ]
}
